{"name":"Malmö","other_names":{"name:da":"Malmø","name:de":"Malmö","name:en":"Malmo","name:fr":"Malmö ou Malmoe","name:he":"מאלמה","name:hu":"Malmö","name:ja":"マルメ","name:ko":"말뫼","name:lt":"Malmė","name:mk":"Малме","name:ru":"Мальмё","name:sv":"Malmö","name:yi":"מאלמע","name:zh":"马尔默","name:yue":"馬列麥","alt_name:he":"מאלמו","old_name:fr":"Malmœ"},"display_name":"Malmö, Malmö kommun, Skåne län, Sverige","address":{"city":"Malmö","municipality":"Malmö kommun","county":"Skåne län","ISO3166-2-lvl4":"SE-M","country":"Sverige","country_code":"se"},"population":316588,"osm_type":"relation","osm_id":10663667,"type":"administrative","location":[13.0001566,55.6052931],"bbox":[12.9109073,55.5479606,13.1295052,55.6520233]}
{"name":"Gävle","other_names":{"name:he":"יבלה","name:hu":"Gävle","name:lt":"Jevlė","name:ru":"Евле","name:sv":"Gävle","old_name":"Gefle"},"display_name":"Gävle, Gävle kommun, Gävleborgs län, Sverige","address":{"city":"Gävle","municipality":"Gävle kommun","county":"Gävleborgs län","ISO3166-2-lvl4":"SE-X","country":"Sverige","country_code":"se"},"population":100000,"osm_type":"relation","osm_id":10663995,"type":"administrative","location":[17.1467019,60.6750132],"bbox":[17.0535868,60.6415881,17.2900969,60.737118]}
{"name":"Sundsvall","other_names":{"name:he":"סונדרסוואל","name:ru":"Сундсвалль","name:sv":"Sundsvall","name:sma":"Sjädtavaellie"},"display_name":"Sundsvall, Sundsvalls kommun, Västernorrlands län, Sverige","address":{"city":"Sundsvall","municipality":"Sundsvalls kommun","county":"Västernorrlands län","ISO3166-2-lvl4":"SE-Y","country":"Sverige","country_code":"se"},"population":57606,"osm_type":"relation","osm_id":10276532,"type":"administrative","location":[17.3071024,62.3907552],"bbox":[17.196125,62.3619984,17.3989975,62.4723192]}
{"name":"Örnsköldsvik","other_names":{"name:en":"Örnsköldsvik","name:ru":"Эрншёльдсвик","name:sv":"Örnsköldsvik","name:uk":"Ерншельдсвік","loc_name":"övik","name:sma":"Orrestaare","short_name":"Ö-vik"},"display_name":"Örnsköldsvik, Örnsköldsviks kommun, Västernorrlands län, Sverige","address":{"city":"Örnsköldsvik","municipality":"Örnsköldsviks kommun","county":"Västernorrlands län","ISO3166-2-lvl4":"SE-Y","country":"Sverige","country_code":"se"},"population":32953,"osm_type":"relation","osm_id":10285521,"type":"administrative","location":[18.7160209,63.2888613],"bbox":[18.5256957,63.2398887,18.8346004,63.3462004]}
{"name":"Umeå","other_names":{"name:eo":"Umeå","name:et":"Umeå","name:fi":"Uumaja","name:he":"אומאו","name:hu":"Umeå","name:lt":"Umeo","name:pl":"Umeå","name:ru":"Умео","name:se":"Ubmi","name:sr":"Умео","name:sv":"Umeå","name:uk":"Умео","official_name":"Umeå centralort"},"display_name":"Umeå, Umeå kommun, Västerbottens län, Sverige","address":{"city":"Umeå","municipality":"Umeå kommun","county":"Västerbottens län","ISO3166-2-lvl4":"SE-AC","country":"Sverige","country_code":"se"},"population":79594,"osm_type":"relation","osm_id":7392435,"type":"administrative","location":[20.2630745,63.8256568],"bbox":[20.1338355,63.7855589,20.3853529,63.8820322]}
{"name":"Malmö","other_names":{"name:da":"Malmø","name:de":"Malmö","name:en":"Malmo","name:he":"מאלמה","name:hu":"Malmö","name:ja":"マルメ","name:ko":"말뫼","name:lt":"Malmė","name:mk":"Малме","name:ru":"Мальмё","name:sv":"Malmö","name:yi":"מאלמע","name:zh":"马尔默","name:yue":"馬列麥","alt_name:he":"מאלמו"},"display_name":"Malmö, Malmö kommun, Skåne län, Sverige","address":{"city":"Malmö","municipality":"Malmö kommun","county":"Skåne län","ISO3166-2-lvl4":"SE-M","country":"Sverige","country_code":"se"},"population":316588,"osm_type":"node","osm_id":26804505,"type":"city","location":[13.0001566,55.6052931],"bbox":[12.8401566,55.4452931,13.1601566,55.7652931]}
{"name":"Helsingborg","other_names":{"name:et":"Helsingborg","name:he":"הלסינגבורג","name:hu":"Helsingborg","name:is":"Helsingjaborg","name:lt":"Helsingborgas","name:mk":"Хелсингборг","name:ru":"Хельсингборг","name:sv":"Helsingborg","name:zh":"赫尔辛堡","old_name":"Hälsingborg"},"display_name":"Helsingborg, Helsingborgs kommun, Skåne län, 252 68, Sverige","address":{"city":"Helsingborg","municipality":"Helsingborgs kommun","county":"Skåne län","ISO3166-2-lvl4":"SE-M","postcode":"252 68","country":"Sverige","country_code":"se"},"population":93838,"osm_type":"node","osm_id":15412058,"type":"city","location":[12.703706,56.0442098],"bbox":[12.543706,55.8842098,12.863706,56.2042098]}
{"name":"Karlskrona","other_names":{"name:he":"קרלסקרונה","name:is":"Karlskróna","name:lt":"Karlskruna","name:ru":"Карлскруна","name:sv":"Karlskrona"},"display_name":"Karlskrona, Karlskrona kommun, Blekinge län, 371 31, Sverige","address":{"city":"Karlskrona","municipality":"Karlskrona kommun","county":"Blekinge län","ISO3166-2-lvl4":"SE-K","postcode":"371 31","country":"Sverige","country_code":"se"},"population":35212,"osm_type":"node","osm_id":1599473536,"type":"city","location":[15.5866422,56.1621073],"bbox":[15.4266422,56.0021073,15.7466422,56.3221073]}
{"name":"Halmstad","other_names":{"name:he":"האלמסטד","name:la":"Halmostadium","name:lt":"Halmstadas","name:ru":"Хальмстад","name:sv":"Halmstad"},"display_name":"Halmstad, Halmstads kommun, Hallands län, 302 46, Sverige","address":{"city":"Halmstad","municipality":"Halmstads kommun","county":"Hallands län","ISO3166-2-lvl4":"SE-N","postcode":"302 46","country":"Sverige","country_code":"se"},"population":55688,"osm_type":"node","osm_id":1594669682,"type":"city","location":[12.8574827,56.6739826],"bbox":[12.6974827,56.5139826,13.0174827,56.8339826]}
{"name":"Göteborg","other_names":{"name:af":"Gotenburg","name:am":"ዬተቦርይ","name:ar":"غوتنبرغ","name:az":"Göteborq","name:be":"Гётэбарг","name:bg":"Гьотеборг","name:bn":"গোথেনবার্গ","name:br":"Göteborg","name:bs":"Geteborg","name:ca":"Göteborg","name:ce":"Гётеборг","name:co":"Göteborg","name:cs":"Göteborg","name:cv":"Гётеборг","name:cy":"Göteborg","name:da":"Göteborg","name:de":"Göteborg","name:ee":"Göteborg","name:el":"Γκέτεμποργκ","name:en":"Gothenburg","name:eo":"Göteborg","name:es":"Gotemburgo","name:et":"Göteborg","name:eu":"Göteborg","name:fa":"یوتبری","name:fi":"Göteborg","name:fj":"Gothenburg","name:fo":"Göteborg","name:fr":"Göteborg","name:fy":"Goateboarch","name:ga":"Göteborg","name:gd":"Göteborg","name:gl":"Gotemburgo","name:he":"גטבורג","name:hi":"गोथनबर्ग","name:hr":"Göteborg","name:hu":"Göteborg","name:hy":"Գյոթեբորգ","name:ia":"Göteborg","name:id":"Göteborg","name:ie":"Göteborg","name:io":"Göteborg","name:is":"Gautaborg","name:it":"Göteborg","name:iu":"ᐃᐅᑕᐳᕆ","name:ja":"イェーテボリ","name:jv":"Göteborg","name:ka":"გეტებორგი","name:kk":"Гётеборг","name:ko":"예테보리","name:ku":"Göteborg","name:kw":"Göteborg","name:ky":"Гөтеборг","name:la":"Gothoburgum","name:lb":"Göteborg","name:li":"Göteborg","name:lt":"Geteborgas","name:lv":"Gēteborga","name:mi":"Kotenepara","name:mk":"Гетеборг","name:ml":"ഗോഥെൻബർഗ്","name:mn":"Гётеборг","name:mr":"योहतेबोर्य","name:ms":"Gothenburg","name:my":"ဂိုသန်ဘာ့ဂ်မြို့","name:nl":"Göteborg (stad)","name:nn":"Göteborg","name:no":"Göteborg","name:os":"Гётеборг","name:pl":"Göteborg","name:pt":"Gotemburgo","name:qu":"Gotemburg","name:ro":"Göteborg","name:ru":"Гётеборг","name:sc":"Göteborg","name:sd":"گوٽيبورگ","name:se":"Göteborg","name:sh":"Göteborg","name:sk":"Göteborg","name:sl":"Göteborg","name:sn":"Gothenburg","name:so":"Göteborg","name:sq":"Göteborg","name:sr":"Гетеборг","name:su":"Gothenburg","name:sv":"Göteborg","name:sw":"Göteborg","name:tg":"Гӯтебург","name:th":"กอเทนเบิร์ก","name:tr":"Göteborg","name:tt":"Гөтеборг","name:ug":"گوتېنبۇرگ","name:uk":"Гетеборг","name:ur":"یوہتیبوری","name:uz":"Gyoteborg","name:vi":"Göteborg","name:vo":"Göteborg","name:yi":"געטעבארג","name:zh":"哥德堡","name:arz":"جوتنبرج","name:ast":"Gotemburgu","name:bar":"Gotnburg","name:ckb":"یۆتۆبۆری","name:csb":"Göteborg","name:dsb":"Göteborg","name:frr":"Göteborg","name:hsb":"Göteborg","name:kaa":"Gyoteborg","name:lij":"Göteborg","name:lmo":"Göteborg","name:min":"Göteborg/Gothenburg","name:nds":"Göteborg","name:pms":"Göteborg","name:rue":"Гетеборг","name:sco":"Gothenburg","name:szl":"Göteborg","name:vec":"Göteborg","name:vep":"Göteborg","name:war":"Gothenburg","name:wuu":"哥德堡","short_name":"Gbg","old_name:de":"Gotenburg"},"display_name":"Göteborg, Göteborgs Stad, Västra Götalands län, 411 10, Sverige","address":{"city":"Göteborg","municipality":"Göteborgs Stad","county":"Västra Götalands län","ISO3166-2-lvl4":"SE-O","postcode":"411 10","country":"Sverige","country_code":"se"},"population":522259,"osm_type":"node","osm_id":25930131,"type":"city","location":[11.9670171,57.7072326],"bbox":[11.8070171,57.5472326,12.1270171,57.8672326]}
{"name":"Växjö","other_names":{"name:he":"וקשה","name:hu":"Växjö","name:la":"Wexionia","name:lt":"Vekšė","name:ru":"Векшё","name:sv":"Växjö"},"display_name":"Växjö, Växjö kommun, Kronobergs län, 351 04, Sverige","address":{"city":"Växjö","municipality":"Växjö kommun","county":"Kronobergs län","ISO3166-2-lvl4":"SE-G","postcode":"351 04","country":"Sverige","country_code":"se"},"population":55600,"osm_type":"node","osm_id":25508576,"type":"city","location":[14.8094385,56.8787183],"bbox":[14.6494385,56.7187183,14.9694385,57.0387183]}
{"name":"Kalmar","other_names":{"name:la":"Calmaria","name:lt":"Kalmaras","name:ru":"Кальмар","name:sv":"Kalmar","old_name":"Calmar"},"display_name":"Kalmar, Kalmar kommun, Kalmar län, 392 31, Sverige","address":{"city":"Kalmar","municipality":"Kalmar kommun","county":"Kalmar län","ISO3166-2-lvl4":"SE-H","postcode":"392 31","country":"Sverige","country_code":"se"},"population":35170,"osm_type":"node","osm_id":1607319731,"type":"city","location":[16.3662382,56.6628826],"bbox":[16.2062382,56.5028826,16.5262382,56.8228826]}
{"name":"Jönköping","other_names":{"name:la":"Junecopia","name:ru":"Йёнчёпинг","name:sv":"Jönköping","name:zh":"延雪平","short_name":"Jkpg"},"display_name":"Jönköping, Jönköpings kommun, Jönköpings län, 551 86, Sverige","address":{"city":"Jönköping","municipality":"Jönköpings kommun","county":"Jönköpings län","ISO3166-2-lvl4":"SE-F","postcode":"551 86","country":"Sverige","country_code":"se"},"population":84423,"osm_type":"node","osm_id":191664748,"type":"city","location":[14.165719,57.7825634],"bbox":[14.005719,57.6225634,14.325719,57.9425634]}
{"name":"Linköping","other_names":{"name:ar":"لينشوبينغ","name:be":"Лінчэпінг","name:bg":"Линшьопинг","name:el":"Λινκόπινγκ","name:fa":"لینشوپینگ","name:hy":"Լինչոպինգ","name:ja":"リンシェーピング","name:ka":"ლინჩეპინგი","name:ko":"린셰핑","name:la":"Lincopia","name:lt":"Linšiopingas","name:lv":"Linšēpinga","name:mk":"Линшепинг","name:ru":"Линчёпинг","name:sr":"Линћепинг","name:sv":"Linköping","name:th":"ลินเชอปิง","name:uk":"Лінчепінг","name:zh":"林雪平"},"display_name":"Linköping, Linköpings kommun, Östergötlands län, 582 19, Sverige","address":{"city":"Linköping","municipality":"Linköpings kommun","county":"Östergötlands län","ISO3166-2-lvl4":"SE-E","postcode":"582 19","country":"Sverige","country_code":"se"},"population":114582,"osm_type":"node","osm_id":20975578,"type":"city","location":[15.6245252,58.4098135],"bbox":[15.4645252,58.2498135,15.7845252,58.5698135]}
{"name":"Karlstad","other_names":{"name:he":"קרלסטד","name:hu":"Karlstad","name:la":"Carolostadium Suevicum","name:lt":"Karlstadas","name:lv":"Kārlstāde","name:ru":"Карлстад","name:sv":"Karlstad","name:uk":"Карлстад"},"display_name":"Karlstad, Karlstads kommun, Värmlands län, 652 24, Sverige","address":{"city":"Karlstad","municipality":"Karlstads kommun","county":"Värmlands län","ISO3166-2-lvl4":"SE-S","postcode":"652 24","country":"Sverige","country_code":"se"},"population":62797,"osm_type":"node","osm_id":25975135,"type":"city","location":[13.5027631,59.3809146],"bbox":[13.3427631,59.2209146,13.6627631,59.5409146]}
{"name":"Örebro","other_names":{"name:he":"ארברו","name:lt":"Erebru","name:ru":"Эребру","name:sv":"Örebro","name:yi":"ערעברו","old_name":"Ørabro"},"display_name":"Örebro, Örebro kommun, Örebro län, 703 61, Sverige","address":{"city":"Örebro","municipality":"Örebro kommun","county":"Örebro län","ISO3166-2-lvl4":"SE-T","postcode":"703 61","country":"Sverige","country_code":"se"},"population":98237,"osm_type":"node","osm_id":27593232,"type":"city","location":[15.2151181,59.2747287],"bbox":[15.0551181,59.1147287,15.3751181,59.4347287]}
{"name":"Eskilstuna","other_names":{"name:lt":"Eskilstiuna","name:ru":"Эскильстуна","name:sv":"Eskilstuna"},"display_name":"Eskilstuna, Eskilstuna kommun, Södermanlands län, 632 27, Sverige","address":{"city":"Eskilstuna","municipality":"Eskilstuna kommun","county":"Södermanlands län","ISO3166-2-lvl4":"SE-D","postcode":"632 27","country":"Sverige","country_code":"se"},"osm_type":"node","osm_id":28898845,"type":"city","location":[16.5051474,59.3717379],"bbox":[16.3451474,59.2117379,16.6651474,59.5317379]}
{"name":"Västerås","other_names":{"name:he":"וסטרוס","name:lt":"Vesterosas","name:ru":"Вестерос","name:sv":"Västerås","name:yi":"וועסטעראס","name:zh":"韦斯特罗斯"},"display_name":"Västerås, Västerås kommun, Västmanlands län, 721 01, Sverige","address":{"city":"Västerås","municipality":"Västerås kommun","county":"Västmanlands län","ISO3166-2-lvl4":"SE-U","postcode":"721 01","country":"Sverige","country_code":"se"},"population":110877,"osm_type":"node","osm_id":27513227,"type":"city","location":[16.5463679,59.6110992],"bbox":[16.3863679,59.4510992,16.7063679,59.7710992]}
{"name":"Falun","other_names":{"name:ru":"Фалун","name:sv":"Falun","old_name":"Fahlun;Fahlund"},"display_name":"Falun, Falu kommun, Dalarnas län, 791 30, Sverige","address":{"city":"Falun","municipality":"Falu kommun","county":"Dalarnas län","ISO3166-2-lvl4":"SE-W","postcode":"791 30","country":"Sverige","country_code":"se"},"population":36447,"osm_type":"node","osm_id":510542745,"type":"city","location":[15.6323059,60.6070068],"bbox":[15.4723059,60.4470068,15.7923059,60.7670068]}
{"name":"Stockholm","other_names":{"name:am":"ስቶኮልም","name:an":"Estocolmo","name:ar":"ستوكهولم","name:az":"Stokholm","name:be":"Стакгольм","name:bg":"Стокхолм","name:bn":"স্টকহোম","name:bo":"སི་ཏོག་ཧོ་ལིམ།","name:br":"Stockholm","name:ca":"Estocolm","name:co":"Stoccolma","name:cs":"Stockholm","name:cv":"Стокгольм","name:da":"Stockholm","name:de":"Stockholm","name:el":"Στοκχόλμη","name:en":"Stockholm","name:eo":"Stokholmo","name:es":"Estocolmo","name:et":"Stockholm","name:eu":"Stockholm","name:fa":"استکهلم","name:fi":"Tukholma","name:fo":"Stokkhólmur","name:fr":"Stockholm","name:fy":"Stokholm","name:ga":"Stócólm","name:gl":"Estocolmo","name:he":"סטוקהולם","name:hi":"स्टॉकहोम","name:hr":"Stockholm","name:ht":"Stokolm","name:hu":"Stockholm","name:hy":"Ստոքհոլմ","name:is":"Stokkhólmur","name:it":"Stoccolma","name:iu":"ᔅᑑᒃᓱᓪᒻ","name:ja":"ストックホルム","name:ka":"სტოკჰოლმი","name:kk":"Стокгольм","name:ko":"스톡홀름","name:ku":"Stokholm","name:kv":"Стокгольм","name:la":"Holmia","name:lt":"Stokholmas","name:lv":"Stokholma","name:mk":"Стокхолм","name:ml":"സ്റ്റോക്ക്‌ഹോം","name:mr":"स्टॉकहोम","name:mt":"Stokkolma","name:my":"စတော့ဟုမ်းမြို့","name:nl":"Stockholm","name:no":"Stockholm","name:oc":"Estocòlme","name:os":"Стокгольм","name:pl":"Sztokholm","name:pt":"Estocolmo","name:ru":"Стокгольм","name:sc":"Stoccolma","name:se":"Stockholbma","name:sk":"Štokholm","name:sq":"Stokholmi","name:sr":"Стокхолм","name:sv":"Stockholm","name:ta":"ஸ்டாக்ஹோம்","name:tg":"Стокҳолм","name:th":"สตอกโฮล์ม","name:tt":"Стокһолм","name:ug":"Stokgolm","name:uk":"Стокгольм","name:ur":"سٹاکہوم","name:uz":"Stokgolm","name:wo":"Stokolm","name:yi":"שטאקהאלם","name:zh":"斯德哥爾摩","name:ang":"Stoccholm","name:arc":"ܣܛܘܩܗܘܠܡ","name:arz":"ستوكهولم","name:ast":"Estocolmu","name:ckb":"ستۆکھۆڵم","name:csb":"Sztokhòlm","name:diq":"Stokholm","name:ext":"Estocolmu","name:fit":"Stokholmi","name:kab":"Stukulm","name:koi":"Стёколна","name:lad":"Estokolma","name:lij":"Stoccolma","name:lmo":"Stuculma","name:lzh":"斯德哥爾摩","name:mdf":"Стокольма","name:mhr":"Стокгольм","name:mrj":"Стокгольм","name:myv":"Стокгольм ош","name:mzn":"استکهلم","name:nah":"Estocolmo","name:nds":"Stockholm","name:pms":"Stocòlma","name:pnb":"سٹاکہوم","name:sah":"Стокhольм","name:sju":"Tjåsskasulla","name:sma":"Stuehkie","name:smj":"Stockhoalmma","name:smn":"Tukholma","name:szl":"Sztokholm","name:udm":"Стокгольм","name:vec":"Stocólma","name:vro":"Stokholm","name:yue":"斯德哥爾摩","short_name":"Sthlm","alt_name:gl":"Stockholm","alt_name:he":"שטוקהולם","alt_name:fit":"Tokholmi","name:bat-smg":"Stuokhuolms","name:zh-Hans":"斯德哥尔摩","name:be-tarask":"Стакгольм"},"display_name":"Stockholm, Stockholms kommun, Stockholms län, 111 29, Sverige","address":{"city":"Stockholm","municipality":"Stockholms kommun","county":"Stockholms län","ISO3166-2-lvl4":"SE-AB","postcode":"111 29","country":"Sverige","country_code":"se"},"population":829417,"osm_type":"node","osm_id":25929985,"type":"city","location":[18.0710935,59.3251172],"bbox":[17.9110935,59.1651172,18.2310935,59.4851172]}
{"name":"Uppsala","other_names":{"name:de":"Uppsala","name:eo":"Upsalo","name:fi":"Uppsala","name:he":"אופסלה","name:hu":"Uppsala","name:is":"Uppsalir","name:ko":"웁살라","name:lt":"Upsala","name:ru":"Уппсала","name:sv":"Uppsala","name:yi":"אופסאלא","name:nds":"Uppsala","old_name":"Östra Aros","old_name:fi":"Upsala"},"display_name":"Uppsala, Uppsala kommun, Uppsala län, 753 20, Sverige","address":{"city":"Uppsala","municipality":"Uppsala kommun","county":"Uppsala län","ISO3166-2-lvl4":"SE-C","postcode":"753 20","country":"Sverige","country_code":"se"},"population":128400,"osm_type":"node","osm_id":25735371,"type":"city","location":[17.6387436,59.8586126],"bbox":[17.4787436,59.6986126,17.7987436,60.0186126]}
{"name":"Gävle","other_names":{"name:he":"יבלה","name:hu":"Gävle","name:lt":"Jevlė","name:ru":"Евле","name:sv":"Gävle","old_name":"Gefle"},"display_name":"Gävle, Gävle kommun, Gävleborgs län, Sverige","address":{"city":"Gävle","municipality":"Gävle kommun","county":"Gävleborgs län","ISO3166-2-lvl4":"SE-X","country":"Sverige","country_code":"se"},"population":100000,"osm_type":"node","osm_id":27432055,"type":"city","location":[17.1467019,60.6750132],"bbox":[16.9867019,60.5150132,17.3067019,60.8350132]}
{"name":"Östersund","other_names":{"name:lt":"Estešundas","name:ru":"Эстерсунд","name:sr":"Естерсунд","name:sv":"Östersund","name:sma":"Staare"},"display_name":"Östersund, Östersunds kommun, Jämtlands län, 831 86, Sverige","address":{"city":"Östersund","municipality":"Östersunds kommun","county":"Jämtlands län","ISO3166-2-lvl4":"SE-Z","postcode":"831 86","country":"Sverige","country_code":"se"},"population":44000,"osm_type":"node","osm_id":27558697,"type":"city","location":[14.6357061,63.1793655],"bbox":[14.4757061,63.0193655,14.7957061,63.3393655]}
{"name":"Sundsvall","other_names":{"name:he":"סונדרסוואל","name:ru":"Сундсвалль","name:sv":"Sundsvall","name:sma":"Sjädtavaellie"},"display_name":"Sundsvall, Sundsvalls kommun, Västernorrlands län, Sverige","address":{"city":"Sundsvall","municipality":"Sundsvalls kommun","county":"Västernorrlands län","ISO3166-2-lvl4":"SE-Y","country":"Sverige","country_code":"se"},"population":57606,"osm_type":"node","osm_id":283253592,"type":"city","location":[17.3071024,62.3907552],"bbox":[17.1471024,62.2307552,17.4671024,62.5507552]}
{"name":"Killingskäret","display_name":"Killingskäret, Juniskär, Njurunda glesbygdsområde, Njurunda distrikt, Sundsvalls kommun, Västernorrlands län, 862 91, Sverige","address":{"natural":"Killingskäret","suburb":"Juniskär","city_district":"Njurunda glesbygdsområde","city":"Njurunda distrikt","municipality":"Sundsvalls kommun","county":"Västernorrlands län","ISO3166-2-lvl4":"SE-Y","postcode":"862 91","country":"Sverige","country_code":"se"},"osm_type":"node","osm_id":521552651,"type":"cape","location":[17.4669393,62.2895382],"bbox":[17.4668893,62.2894882,17.4669893,62.2895882]}
{"name":"Örnsköldsvik","other_names":{"name:ru":"Эрншёльдсвик","name:sv":"Örnsköldsvik","name:uk":"Ерншельдсвік","name:sma":"Orrestaare","short_name":"Ö-vik"},"display_name":"Örnsköldsvik, Örnsköldsviks kommun, Västernorrlands län, Sverige","address":{"city":"Örnsköldsvik","municipality":"Örnsköldsviks kommun","county":"Västernorrlands län","ISO3166-2-lvl4":"SE-Y","country":"Sverige","country_code":"se"},"population":32953,"osm_type":"node","osm_id":27560253,"type":"city","location":[18.7160209,63.2888613],"bbox":[18.5560209,63.1288613,18.8760209,63.4488613]}
{"name":"Umeå","other_names":{"name:eo":"Umeå","name:et":"Umeå","name:fi":"Uumaja","name:hu":"Umeå","name:lt":"Umeo","name:pl":"Umeå","name:ru":"Умео","name:se":"Ubmi","name:sr":"Умео","name:uk":"Умео"},"display_name":"Umeå, Umeå kommun, Västerbottens län, Sverige","address":{"city":"Umeå","municipality":"Umeå kommun","county":"Västerbottens län","ISO3166-2-lvl4":"SE-AC","country":"Sverige","country_code":"se"},"population":89607,"osm_type":"node","osm_id":27432369,"type":"city","location":[20.2630745,63.8256568],"bbox":[20.1030745,63.6656568,20.4230745,63.9856568]}
{"name":"Luleå","other_names":{"name:fi":"Luulaja","name:lt":"Liuleo","name:ru":"Лулео","name:se":"Luleju","name:sr":"Лулео","name:sv":"Luleå","name:fit":"Luulaja","name:sju":"Lüvllege","name:smj":"Julevu"},"display_name":"Luleå, Luleå kommun, Norrbottens län, 971 28, Sverige","address":{"city":"Luleå","municipality":"Luleå kommun","county":"Norrbottens län","ISO3166-2-lvl4":"SE-BD","postcode":"971 28","country":"Sverige","country_code":"se"},"population":73864,"osm_type":"node","osm_id":27559814,"type":"city","location":[22.1459535,65.5831187],"bbox":[21.9859535,65.4231187,22.3059535,65.7431187]}