{"name":"Stuttgart","other_names":{"name:ar":"شتوتغارت","name:cs":"Štíhrad","name:de":"Stuttgart","name:ko":"슈투트가르트","name:ru":"Штутгарт","name:swg":"Schtugert","alt_name:cs":"Štukart;Štokart","name:el":"Στουτγκάρδη","name:en":"Stuttgart","name:eo":"Ŝtutgarto","name:fr":"Stuttgart","name:it":"Stoccarda","name:ja":"シュトゥットガルト","name:la":"Stutgardia","name:lt":"Štutgartas","name:lv":"Štutgarte","name:mk":"Штутгарт","name:pt":"Estugarda","name:sr":"Штутгарт","name:th":"ชตุทท์การ์ท","name:uk":"Штутгарт","name:zh":"斯图加特","name:gsw":"Stuegert","name:pfl":"Schduggad","old_name:fr":"Stutgard","name:zh-Hant":"斯圖加特"},"display_name":"Stuttgart, Baden-Württemberg, Deutschland","address":{"city":"Stuttgart","state":"Baden-Württemberg","ISO3166-2-lvl4":"DE-BW","country":"Deutschland","country_code":"de"},"population":613392,"osm_type":"relation","osm_id":2793104,"type":"administrative","location":[9.1800132,48.7784485],"bbox":[9.0386007,48.6920188,9.3160228,48.8663994]}
{"name":"Augsburg","other_names":{"name:ar":"أوغسبورغ","name:br":"Augsburg","name:cs":"Augšpurk","name:de":"Augsburg","name:en":"Augsburg","name:eo":"Aŭgsburgo","name:es":"Augsburgo","name:eu":"Augsburg","name:fa":"اوگسبورگ","name:it":"Augusta","name:ja":"アウクスブルク","name:la":"Augusta Vindelicorum","name:lv":"Augsburga","name:ru":"Аугсбург","name:sr":"Аугсбург","name:th":"เอาก์สบูร์ก","name:tr":"Augsburg","name:uk":"Аугсбург","name:zh":"奥格斯堡","name:zh-Hant":"奧格斯堡","name:fr":"Augsbourg","name:hy":"Աուգսբուրգ","name:ka":"აუგსბურგი","name:als":"Augschburg","name:bar":"Augschburg","old_name:hu":"Ágosta","alt:sr":"Аугзбург"},"display_name":"Augsburg, Bayern, Deutschland","address":{"city":"Augsburg","state":"Bayern","ISO3166-2-lvl4":"DE-BY","country":"Deutschland","country_code":"de"},"population":286374,"osm_type":"relation","osm_id":62407,"type":"administrative","location":[10.8986971,48.3668041],"bbox":[10.7633615,48.2581444,10.9593328,48.4586541]}
{"name":"Nürnberg","other_names":{"name:ar":"نورنبرغ","name:ca":"Nuremberg","name:cs":"Norimberk","name:de":"Nürnberg","name:el":"Νυρεμβέργη","name:en":"Nuremberg","name:fa":"نورنبرگ","name:fi":"Nürnberg","name:fr":"Nuremberg","name:ko":"뉘른베르크","name:nl":"Neurenberg","name:pl":"Norymberga","name:ur":"نورنبرگ","name:zh":"纽伦堡","name:zh-Hans":"纽伦堡","name:zh-Hant":"紐倫堡","name:be":"Нюрнберг","name:es":"Núremberg","name:eu":"Nurenberg","name:gl":"Nürnberg","name:he":"נירנברג","name:hr":"Nürnberg","name:hy":"Նյուրնբերգ","name:it":"Norimberga","name:ja":"ニュルンベルク","name:ka":"ნიურნბერგი","name:la":"Norimberga","name:lt":"Niurnbergas","name:lv":"Nirnberga","name:mk":"Нирнберг","name:pt":"Nuremberga","name:ru":"Нюрнберг","name:sk":"Norimberg","name:sr":"Нирнберг","name:th":"เนือร์นแบร์ก","name:tt":"Нүрнберг","name:uk":"Нюрнберг","loc_name":"Nämberch","name:dsb":"Nürnberg","name:hsb":"Nürnberg","name:nds":"Nürnbarg","alt_name:gl":"Nuremberga"},"display_name":"Nürnberg, Bayern, Deutschland","address":{"city":"Nürnberg","state":"Bayern","ISO3166-2-lvl4":"DE-BY","country":"Deutschland","country_code":"de"},"population":518370,"osm_type":"relation","osm_id":62780,"type":"administrative","location":[11.077298,49.453872],"bbox":[10.9887326,49.3314339,11.2825957,49.5407534]}
{"name":"Köln","other_names":{"name:ar":"كولونيا","name:cs":"Kolín nad Rýnem","name:de":"Köln","name:en":"Cologne","name:es":"Colonia","name:fi":"Köln","name:fr":"Cologne","name:gl":"Colonia","name:it":"Colonia","name:ko":"쾰른","name:la":"Colonia Agrippina","name:mk":"Келн","name:nl":"Keulen","name:pt":"Colónia","name:ru":"Кёльн","name:ur":"کولون","name:zh":"科隆","name:ksh":"Kölle","alt_name:la":"Colonia Claudia Ara Agrippinensium","name:zh-Hans":"科隆","name:zh-Hant":"科隆","name:af":"Keulen","name:be":"Кёльн","name:bg":"Кьолн","name:bs":"Köln","name:ca":"Colònia","name:cy":"Cwlen","name:da":"Köln","name:el":"Κολωνία","name:eo":"Kolonjo","name:et":"Köln","name:eu":"Kolonia","name:fa":"کلن","name:fy":"Keulen","name:ga":"Köln","name:he":"קלן","name:hi":"कलोन्","name:hr":"Köln","name:hu":"Köln","name:ia":"Colonia","name:id":"Köln","name:io":"Köln","name:is":"Köln","name:ja":"ケルン","name:ka":"კელნი","name:kn":"ಕಲೋನ್","name:ku":"Köln","name:lb":"Köln","name:li":"Kölle","name:lt":"Kelnas","name:lv":"Ķelne","name:mr":"क्योल्न","name:ms":"Cologne","name:nn":"Köln","name:no":"Köln","name:oc":"Colonha","name:pl":"Kolonia","name:qu":"Köln","name:ro":"Köln","name:sh":"Köln","name:sk":"Kolín nad Rýnom","name:sl":"Köln","name:sq":"Këllni","name:sr":"Келн","name:sv":"Köln","name:sw":"Köln","name:th":"โคโลญ","name:tl":"Cologne","name:tr":"Köln","name:tt":"Көлн","name:uk":"Кельн","name:vi":"Köln","name:vo":"Köln","name:yi":"קעלן","name:zu":"Köln","loc_name":"Kölle","name:als":"Köln","name:dsb":"Köln","name:nds":"Köln","name:pam":"Cologne","name:scn":"Culonia","name:vec":"Cołogna","name:wuu":"看勒尔","name:yue":"古龍","old_name":"Cöln;Coellen","reg_name":"Kölle","alt_name:gl":"Köln","name:bat-smg":"Kiolns","name:zh_pinyin":"Kēlóng","alt:pt":"Colônia"},"display_name":"Köln, Nordrhein-Westfalen, Deutschland","address":{"city":"Köln","state":"Nordrhein-Westfalen","ISO3166-2-lvl4":"DE-NW","country":"Deutschland","country_code":"de"},"population":1069200,"osm_type":"relation","osm_id":62578,"type":"administrative","location":[6.959974,50.938361],"bbox":[6.7725303,50.8304399,7.162028,51.0849743]}
{"name":"Essen","other_names":{"name:ar":"إسن","name:bg":"Есен","name:cs":"Essen","name:de":"Essen","name:el":"Έσση","name:fa":"اسن","name:he":"אסן","name:hu":"Essen","name:ja":"エッセン","name:ka":"ესენი","name:kk":"Эссен","name:ko":"에센","name:la":"Assindia","name:li":"Esse","name:lt":"Esenas","name:lv":"Esene","name:mr":"एसेन","name:ru":"Эссен","name:sr":"Есен","name:th":"เอสเซิน","name:ug":"Ésén","name:uk":"Ессен","name:ur":"ایسن","name:zh":"埃森","name:ksh":"Äßße","name:nds":"Essen","name:zh-Hans":"埃森","name:zh-Hant":"埃森"},"display_name":"Essen, Nordrhein-Westfalen, Deutschland","address":{"city":"Essen","state":"Nordrhein-Westfalen","ISO3166-2-lvl4":"DE-NW","country":"Deutschland","country_code":"de"},"population":569884,"osm_type":"relation","osm_id":62713,"type":"administrative","location":[7.0158171,51.4582235],"bbox":[6.8943442,51.3475714,7.13765,51.5342269]}
{"name":"Bochum","other_names":{"name:ar":"بوخوم","name:de":"Bochum","name:fr":"Bochum","name:la":"Baucum","name:ru":"Бохум","name:sr":"Бохум","name:uk":"Бохум","name:zh":"波鸿","name:nds":"Baukem","name:zh-TW":"波洪","name:zh-Hant":"波鴻"},"display_name":"Bochum, Nordrhein-Westfalen, Deutschland","address":{"city":"Bochum","state":"Nordrhein-Westfalen","ISO3166-2-lvl4":"DE-NW","country":"Deutschland","country_code":"de"},"population":371075,"osm_type":"relation","osm_id":62644,"type":"administrative","location":[7.2196635,51.4818111],"bbox":[7.1020817,51.4105043,7.3493347,51.5313751]}
{"name":"Hannover","other_names":{"name:am":"Հաննովեր","name:ar":"هانوفر","name:be":"Гановер","name:bg":"Хановер","name:bn":"হানোফার","name:ce":"Хановер","name:de":"Hannover","name:el":"Αννόβερο","name:en":"Hanover","name:eo":"Hanovro","name:es":"Hanóver","name:fa":"هانوفر","name:fr":"Hanovre","name:gd":"Hànobhar","name:gl":"Hannóver","name:he":"הנובר","name:hy":"Հաննովեր","name:ja":"ハノーファー","name:ka":"ჰანოვერი","name:kk":"Ганновер","name:ko":"하노버","name:la":"Hannovera","name:lt":"Hanoveris","name:lv":"Hannovere","name:mk":"Хановер","name:mn":"Ханновер","name:mr":"हानोफर","name:ms":"Hanover","name:nl":"Hannover","name:os":"Ганновер","name:pa":"ਹੈਨੋਫ਼ਾ","name:pl":"Hanower","name:ps":"هانوفر","name:pt":"Hanôver","name:ro":"Hanovra","name:ru":"Ганновер","name:sq":"Hanoveri","name:sr":"Хановер","name:th":"ฮันโนเวอร์","name:ug":"Hanofér","name:uk":"Ганновер","name:ur":"ہانوور","name:xh":"IHanoveri","name:yi":"האנאווער","name:yo":"Hanover","name:zh":"汉诺威","name:azb":"هانوفر","name:hyw":"Հաննովեր","name:nds":"Hannober","name:szl":"Hanŏwry","name:az-Arab":"هانوفر","name:kk-Arab":"گاننوۆەر","name:tt":"Һанновер","name:be-tarask":"Гановэр","name:ckb":"هانۆڤەر","reg_name":"Hannover","name:zh-Hant":"漢諾威"},"display_name":"Hannover, Region Hannover, Niedersachsen, Deutschland","address":{"city":"Hannover","county":"Region Hannover","state":"Niedersachsen","ISO3166-2-lvl4":"DE-NI","country":"Deutschland","country_code":"de"},"population":525875,"osm_type":"relation","osm_id":59418,"type":"administrative","location":[9.7385532,52.3744779],"bbox":[9.60443,52.3051373,9.9184259,52.4543349]}
{"name":"Bremen","other_names":{"name:ar":"بريمن","name:cs":"Brémy","name:de":"Bremen","name:fa":"برمن","name:lv":"Brēmene","name:ru":"Бремен","name:ur":"بریمین","name:zh":"不来梅","name:zh-Hans":"不来梅","name:zh-Hant":"不來梅","name:be":"Брэмен","name:bg":"Бремен","name:el":"Βρέμη","name:en":"Bremen","name:fr":"Brême","name:fy":"Bremen","name:he":"ברמן","name:hu":"Bréma","name:it":"Brema","name:ja":"ブレーメン","name:ka":"ბრემენი","name:ko":"브레멘","name:la":"Brema","name:lt":"Brėmenas","name:mk":"Бремен","name:oc":"Brèma","name:pl":"Brema","name:sc":"Brema","name:sk":"Brémy","name:sq":"Bremeni","name:sr":"Бремен","name:uk":"Бремен","name:hsb":"Bremy","name:nds":"Bremen","official_name":"Freie Hansestadt Bremen","official_name:ar":"مدينة بريمن الحرة الهانزية"},"display_name":"Bremen, Deutschland","address":{"city":"Bremen","state":"Bremen","ISO3166-2-lvl4":"DE-HB","country":"Deutschland","country_code":"de"},"population":551767,"osm_type":"relation","osm_id":62559,"type":"administrative","location":[8.8071646,53.0758196],"bbox":[8.4815929,53.0110367,8.9907318,53.5984187]}
{"name":"Kiel","other_names":{"name:ar":"كيل","name:de":"Kiel","name:fa":"کیل","name:he":"קיל","name:hu":"Kiel","name:is":"Kíl","name:ja":"キール","name:ko":"킬","name:la":"Kielia","name:lt":"Kylis","name:lv":"Ķīle","name:pl":"Kilonia","name:ru":"Киль","name:sr":"Кил","name:uk":"Кіль","name:ur":"کیل","name:zh":"基尔","name:nds":"Kiel","name:zh-Hans":"基尔","name:zh-Hant":"基爾","official_name":"Kreisfreie Stadt Kiel","name:be":"Кіль","name:bg":"Кил","name:el":"Κίελο","name:mk":"Кил","old_name:pl":"Chylonja;Chylonia;Kilonja"},"display_name":"Kiel, Schleswig-Holstein, Deutschland","address":{"city":"Kiel","state":"Schleswig-Holstein","ISO3166-2-lvl4":"DE-SH","country":"Deutschland","country_code":"de"},"population":246306,"osm_type":"relation","osm_id":27021,"type":"administrative","location":[10.135555,54.3227085],"bbox":[10.0329284,54.2507055,10.2186177,54.4329395]}
{"name":"Kolbermoor","display_name":"Kolbermoor, Landkreis Rosenheim, Bayern, 83059, Deutschland","address":{"city":"Kolbermoor","county":"Landkreis Rosenheim","state":"Bayern","ISO3166-2-lvl4":"DE-BY","postcode":"83059","country":"Deutschland","country_code":"de"},"osm_type":"way","osm_id":1041285765,"type":"city","location":[12.067228434429438,47.8525651],"bbox":[12.0425003,47.834668,12.0814422,47.8702582]}
{"name":"Einsiedel","other_names":{"ref":"46","name:de":"Einsiedel"},"display_name":"Einsiedel, Chemnitz, Sachsen, Deutschland","address":{"suburb":"Einsiedel","city":"Chemnitz","state":"Sachsen","ISO3166-2-lvl4":"DE-SN","country":"Deutschland","country_code":"de"},"osm_type":"relation","osm_id":414891,"type":"administrative","location":[12.9745597,50.7691864],"bbox":[12.927029,50.7502947,13.0049067,50.7931001]}
{"name":"Dresden","other_names":{"name:ar":"دريسدن","name:cs":"Drážďany","name:de":"Dresden","name:en":"Dresden","name:es":"Dresde","name:fa":"درسدن","name:fr":"Dresde","name:it":"Dresda","name:ja":"ドレスデン","name:ko":"드레스덴","name:pl":"Drezno","name:ru":"Дрезден","name:sk":"Drážďany","name:ur":"ڈریسڈن","name:zh":"德累斯顿","name:hsb":"Drježdźany","name:szl":"Drezdno","name:zh-Hans":"德累斯顿","name:zh-Hant":"德累斯頓","official_name":"Kreisfreie Stadt Dresden","name:az":"Drezden","name:be":"Дрэздэн","name:el":"Δρέσδη","name:he":"דרזדן","name:hu":"Drezda","name:la":"Dresda","name:lt":"Dresdenas","name:lv":"Drēzdene","name:mk":"Дрезден","name:ro":"Dresda","name:sr":"Дрезден","name:uk":"Дрезден","name:nds":"Dresden"},"display_name":"Dresden, Sachsen, Deutschland","address":{"city":"Dresden","state":"Sachsen","ISO3166-2-lvl4":"DE-SN","country":"Deutschland","country_code":"de"},"population":556780,"osm_type":"relation","osm_id":191645,"type":"administrative","location":[13.7381437,51.0493286],"bbox":[13.5793237,50.974937,13.9660626,51.1777202]}
{"name":"Potsdam","other_names":{"name:ar":"بوتسدام","name:cs":"Postupim","name:de":"Potsdam","name:fa":"پوتسدام","name:pl":"Poczdam","name:ru":"Потсдам","name:sk":"Postupim","name:sr":"Потсдам","name:ur":"پاٹسڈیم","name:zh":"波茨坦","name:szl":"Poctam","name:zh-Hans":"波茨坦","name:zh-Hant":"波茨坦","official_name":"Kreisfreie Stadt Potsdam","name:be":"Патсда́м","name:bg":"Потсдам","name:ce":"Потсдам","name:el":"Πότσδαμ","name:eo":"Pocdamo","name:he":"פוטסדאם","name:hi":"पॉट्सडैम","name:ja":"ポツダム","name:ka":"პოტსდამი","name:kk":"Потсдам","name:ko":"포츠담","name:la":"Potestampium","name:lt":"Potsdamas","name:lv":"Potsdama","name:mk":"Потсдам","name:os":"Потсдам","name:sq":"Pocdami","name:th":"พอทสดัม","name:uk":"Потсдам","name:ckb":"پۆتسدام","name:dsb":"Podstupim","name:hsb":"Podstupim","name:pnb":"پوٹسڈیم"},"display_name":"Potsdam, Brandenburg, Deutschland","address":{"city":"Potsdam","state":"Brandenburg","ISO3166-2-lvl4":"DE-BB","country":"Deutschland","country_code":"de"},"population":178089,"osm_type":"relation","osm_id":62369,"type":"administrative","location":[13.0591397,52.4009309],"bbox":[12.8867757,52.3420411,13.1682033,52.5146876]}
{"name":"Berlin","other_names":{"name:af":"Berlyn","name:am":"በርሊን","name:an":"Berlín","name:ar":"برلين","name:az":"Berlin","name:ba":"Берлин","name:be":"Берлін","name:bg":"Берлин","name:bi":"Berlin","name:bn":"বার্লিন","name:bo":"པེ་ལིང་","name:br":"Berlin","name:bs":"Berlin","name:ca":"Berlín","name:cs":"Berlín","name:cu":"Берлинъ","name:cv":"Берлин","name:cy":"Berlin","name:da":"Berlin","name:de":"Berlin","name:el":"Βερολίνο","name:en":"Berlin","name:eo":"Berlino","name:es":"Berlín","name:et":"Berliin","name:eu":"Berlin","name:fa":"برلین","name:fi":"Berliini","name:fo":"Berlin","name:fr":"Berlin","name:fy":"Berlyn","name:ga":"Beirlín","name:gd":"Berlin","name:gl":"Berlín","name:gn":"Berlin","name:gv":"Berleen","name:he":"ברלין","name:hi":"बर्लिन","name:hr":"Berlin","name:ht":"Bèlen","name:hu":"Berlin","name:hy":"Բեռլին","name:ia":"Berlin","name:id":"Berlin","name:ie":"Berlin","name:io":"Berlin","name:is":"Berlín","name:it":"Berlino","name:ja":"ベルリン","name:jv":"Berlin","name:ka":"ბერლინი","name:kk":"Берлин","name:ko":"베를린","name:ku":"Berlîn","name:kv":"Берлин","name:kw":"Berlin","name:la":"Berolinum","name:lb":"Berlin","name:lg":"Berlin","name:li":"Berlien","name:ln":"Berlin","name:lt":"Berlynas","name:lv":"Berlīne","name:mg":"Berlin","name:mk":"Берлин","name:ml":"ബെര്‍ലിന്","name:mn":"Берлин","name:mr":"बर्लिन","name:ms":"Berlin","name:mt":"Berlin","name:na":"Berlin","name:nl":"Berlijn","name:nn":"Berlin","name:no":"Berlin","name:oc":"Berlin","name:os":"Берлин","name:pl":"Berlin","name:pt":"Berlim","name:qu":"Berlin","name:rm":"Berlin","name:ro":"Berlin","name:ru":"Берлин","name:sc":"Berlinu","name:se":"Berlin","name:sh":"Berlin","name:sk":"Berlín","name:sl":"Berlin","name:so":"Berlin","name:sq":"Berlini","name:sr":"Берлин","name:su":"Berliini","name:sv":"Berlin","name:sw":"Berlin","name:ta":"பெர்லின்","name:te":"బెర్లిన్","name:tg":"Берлин","name:th":"เบอร์ลิน","name:tl":"Berlin","name:tr":"Berlin","name:tt":"Берлин","name:ty":"Berlin","name:uk":"Берлін","name:ur":"برلن","name:uz":"Berlin","name:vi":"Berlin","name:wo":"Berlin","name:yi":"בערלין","name:yo":"Berlin","name:zh":"柏林","name:zu":"Berlin","name:als":"Berlin","name:ang":"Berlin","name:arc":"ܒܪܠܝܢ","name:ast":"Berlín","name:bar":"Berlin","name:crh":"Berlin","name:csb":"Berlëno","name:diq":"Berlin","name:dsb":"Barliń","name:frp":"Bèrlin","name:fur":"Berlin","name:haw":"Pelelina","name:hsb":"Berlin","name:ilo":"Berlin","name:jbo":"berlin","name:kab":"Berlin","name:ksh":"Bälliin","name:lij":"Berlin","name:lmo":"Berlin","name:lzh":"柏林","name:myv":"Берлин ош","name:nah":"Berlin","name:nan":"Berlin","name:nap":"Berlino","name:nds":"Berlin","name:nov":"Berlin","name:nrm":"Bèrlîn","name:pam":"Berlin","name:pdc":"Berlin","name:pms":"Berlin","name:rmy":"Berlin","name:sah":"Берлин","name:scn":"Birlinu","name:sco":"Berlin","name:stq":"Berlin","name:szl":"Berlin","name:tet":"Berlín","name:tpi":"Berlin","name:tzl":"Berlin","name:vec":"Berlin","name:vls":"Berlyn","name:yue":"柏林","ISO3166-2":"DE-BE","name:short":"BE","alt_name:vi":"Béc-lin","old_name:vi":"Bá Linh","name:bat-smg":"Berlīns","name:cbk-zam":"Berlín","name:roa-rup":"Berlin","name:roa-tara":"Berline","official_name":"Berlin","name:ab":"Берлин","name:co":"Berlinu","name:iu":"ᐱᕐᓖᓐ","name:kn":"ಬೆರ್ಲಿನ್","name:ky":"Берлин","name:mi":"Pearīni","name:my":"ဘာလင်မြို့","name:ps":"برلين","name:si":"බර්ලිනය","name:ug":"Bérlin","name:be-tarask":"Бэрлін","name:arz":"بيرلين","name:bxr":"Берлин","name:ckb":"بەرلین","name:ext":"Berlín","name:gan":"柏林","name:kbd":"Берлин","name:koi":"Берлин","name:lez":"Берлин","name:ltg":"Berlins","name:mhr":"Берлин","name:mrj":"Берлин","name:mzn":"برلین","name:pfl":"Balin","name:pnb":"برلن","name:pnt":"Βερολίνον","name:rue":"Берлін","name:udm":"Берлин","name:vro":"Berliin","name:xmf":"ბერლინი","name:zea":"Berlijn","name:nds-nl":"Berlien","name:zh-Hans":"柏林","name:zh-Hant":"柏林","alt:vi":"Béc-lin","alt:ilo":"Berlin, Alemania","alt:pdc":"Berlin, Deitschland"},"display_name":"Berlin, Deutschland","address":{"city":"Berlin","ISO3166-2-lvl4":"DE-BE","country":"Deutschland","country_code":"de"},"population":3769962,"osm_type":"relation","osm_id":62422,"type":"administrative","location":[13.3888599,52.5170365],"bbox":[13.088345,52.3382448,13.7611609,52.6755087]}
{"name":"Cottbus - Chóśebuz","other_names":{"name:ar":"كتبوس","name:cs":"Chotěbuz","name:de":"Cottbus","name:fa":"کتبوس","name:fr":"Cottbus","name:lt":"Kotbusas","name:nl":"Cottbus","name:pl":"Chociebuż","name:ru":"Котбус","name:sk":"Chotebuz","name:ur":"کتبوس","name:dsb":"Chóśebuz","name:hsb":"Choćebuz","official_name":"Kreisfreie Stadt Cottbus","name:ja":"コトブス","name:sr":"Котбус","alt_name:dsb":"Chóšobuz"},"display_name":"Cottbus - Chóśebuz, Brandenburg, Deutschland","address":{"city":"Cottbus - Chóśebuz","state":"Brandenburg","ISO3166-2-lvl4":"DE-BB","country":"Deutschland","country_code":"de"},"population":101036,"osm_type":"relation","osm_id":62430,"type":"administrative","location":[14.3357307,51.7567447],"bbox":[14.2733096,51.692574,14.5017195,51.8642527]}
{"name":"Konstanz","other_names":{"name:ca":"Constança","name:cs":"Kostnice","name:de":"Konstanz","name:en":"Constance","name:eo":"Konstanco","name:es":"Constanza","name:eu":"Konstantza","name:fr":"Constance","name:it":"Costanza","name:ja":"コンスタンツ","name:la":"Constantia","name:lt":"Konstancas","name:pl":"Konstancja","name:pt":"Constança","name:ru":"Констанц","name:sk":"Kostnica","name:sr":"Констанц","int_name":"Constance","name:gsw":"Choschdez"},"display_name":"Konstanz, Verwaltungsgemeinschaft Konstanz, Landkreis Konstanz, Baden-Württemberg, 78462, Deutschland","address":{"city":"Konstanz","municipality":"Verwaltungsgemeinschaft Konstanz","county":"Landkreis Konstanz","state":"Baden-Württemberg","ISO3166-2-lvl4":"DE-BW","postcode":"78462","country":"Deutschland","country_code":"de"},"population":85692,"osm_type":"node","osm_id":1636999091,"type":"city","location":[9.1750718,47.659216],"bbox":[9.0150718,47.499216,9.3350718,47.819216]}
{"name":"Freiburg im Breisgau","other_names":{"name:af":"Freiburg im Breisgau","name:ar":"فرايبورغ","name:bg":"Фрайбург","name:ca":"Friburg de Brisgòvia","name:cs":"Freiburg im Breisgau","name:da":"Freiburg im Breisgau","name:de":"Freiburg im Breisgau","name:el":"Φρειβούργο","name:en":"Freiburg im Breisgau","name:eo":"Frajburgo en Breisgaŭ","name:es":"Friburgo de Brisgovia","name:et":"Freiburg","name:eu":"Friburgo","name:fa":"فرایبورگ","name:fi":"Freiburg im Breisgau","name:fr":"Fribourg-en-Brisgau","name:he":"פרייבורג בברייסגאו","name:hr":"Freiburg","name:hu":"Freiburg im Breisgau","name:id":"Freiburg im Breisgau","name:io":"Freiburg im Breisgau","name:it":"Friburgo in Brisgovia","name:ja":"フライブルク","name:ka":"ფრაიბურგი","name:ko":"프라이부르크","name:la":"Friburgum Brisgoviae","name:lb":"Freiburg im Breisgau","name:lv":"Freiburga","name:mk":"Фрајбург на Брајзгау","name:mr":"फ्रायबुर्ग","name:nl":"Freiburg im Breisgau","name:nn":"Freiburg im Breisgau","name:no":"Freiburg im Breisgau","name:oc":"Friborg de Brisgòvia","name:pl":"Fryburg Bryzgowijski","name:pt":"Freiburg im Breisgau","name:ro":"Freiburg","name:ru":"Фрайбург-в-Брайсгау","name:sh":"Freiburg","name:sk":"Freiburg","name:sq":"Freiburg im Breisgau","name:sr":"Фрајбург","name:sv":"Freiburg im Breisgau","name:tr":"Freiburg im Breisgau","name:ur":"فری برگ","name:vi":"Freiburg im Breisgau","name:vo":"Freiburg (Badän)","name:zh":"弗莱堡","alt_name":"Freiburg i. Br.","name:gsw":"Friburg im Brisgau","name:jbo":"Freiburg","name:scn":"Friburgu","name:vec":"Friburgo en Brisgovia","short_name":"Freiburg"},"display_name":"Freiburg im Breisgau, Baden-Württemberg, Deutschland","address":{"city":"Freiburg im Breisgau","state":"Baden-Württemberg","ISO3166-2-lvl4":"DE-BW","country":"Deutschland","country_code":"de"},"population":220286,"osm_type":"node","osm_id":240092010,"type":"city","location":[7.8494005,47.9960901],"bbox":[7.6894005,47.8360901,8.0094005,48.1560901]}
{"name":"Karlsruhe","other_names":{"name:ar":"كارلسروه","name:az":"Karlsruye","name:bg":"Карлсруе","name:cv":"Карлсруэ","name:el":"Καρλσρούη","name:fa":"کارلسروهه","name:he":"קארלסרוהה","name:ja":"カールスルーエ","name:ka":"კარლსრუე","name:ko":"카를스루에","name:la":"Carolsruha","name:lv":"Karlsrūe","name:mk":"Карлсруе","name:ru":"Карлсруэ","name:sr":"Карлсруе","name:uk":"Карлсруе","name:ur":"کالسروئے","name:zh":"卡尔斯鲁厄","name:als":"Karlsrueh","name:pfl":"Kallsruh","alt_name:ur":"کارلسروئے","name:zh-Hant":"卡爾斯魯厄"},"display_name":"Karlsruhe, Baden-Württemberg, Deutschland","address":{"city":"Karlsruhe","state":"Baden-Württemberg","ISO3166-2-lvl4":"DE-BW","country":"Deutschland","country_code":"de"},"population":283959,"osm_type":"node","osm_id":240120582,"type":"city","location":[8.4034195,49.0068705],"bbox":[8.2434195,48.8468705,8.5634195,49.1668705]}
{"name":"Saarbrücken","other_names":{"name:ar":"ساربروكن","name:de":"Saarbrücken","name:fr":"Sarrebruck","name:ja":"ザールブリュッケン","name:ka":"ზაარბრიუკენი","name:la":"Saravipons","name:lb":"Saarbrécken","name:lt":"Sarbriukenas","name:ru":"Саарбрюккен","name:sr":"Сарбрикен","int_name":"Saarbruecken","loc_name":"Saabrigge","name:pfl":"Saarbrigge","name:zh-Hans":"萨尔布吕肯","name:zh-Hant":"薩爾布呂肯"},"display_name":"Saarbrücken, Regionalverband Saarbrücken, Saarland, Deutschland","address":{"city":"Saarbrücken","county":"Regionalverband Saarbrücken","state":"Saarland","ISO3166-2-lvl4":"DE-SL","country":"Deutschland","country_code":"de"},"population":177201,"osm_type":"node","osm_id":1530957491,"type":"city","location":[6.996379,49.234362],"bbox":[6.836379,49.074362,7.156379,49.394362]}
{"name":"Trier","other_names":{"name:am":"ትሪር","name:ar":"ترير","name:ca":"Trèveris","name:cs":"Trevír","name:de":"Trier","name:el":"Τριρ","name:en":"Trier","name:eo":"Treviro","name:es":"Tréveris","name:fr":"Trèves","name:hy":"Թրիեր","name:it":"Treviri","name:ja":"トリーア","name:la":"Augusta Treverorum","name:lb":"Tréier","name:pa":"ਤਖ਼ੀਆ","name:pl":"Trewir","name:pt":"Tréveris","name:ru":"Трир","name:sr":"Трир","name:uk":"Трір","name:ur":"ترئیر","name:zh":"特里尔","name:azb":"تری‌یر","old_name":"Augusta Treverorum","name:az-Arab":"تری‌یر","name:kk-Arab":"ترىير"},"display_name":"Trier, Rheinland-Pfalz, Deutschland","address":{"city":"Trier","state":"Rheinland-Pfalz","ISO3166-2-lvl4":"DE-RP","country":"Deutschland","country_code":"de"},"population":107233,"osm_type":"node","osm_id":31941291,"type":"city","location":[6.6441878,49.7596208],"bbox":[6.4841878,49.5996208,6.8041878,49.9196208]}
{"name":"Kaiserslautern","other_names":{"name:ar":"كايزرسلوترن","name:ja":"カイザースラウテルン","name:ru":"Кайзерслаутерн","name:sr":"Кајзерслаутерн","name:zh":"凯撒斯劳滕"},"display_name":"Kaiserslautern, Rheinland-Pfalz, Deutschland","address":{"city":"Kaiserslautern","state":"Rheinland-Pfalz","ISO3166-2-lvl4":"DE-RP","country":"Deutschland","country_code":"de"},"population":97162,"osm_type":"node","osm_id":240093234,"type":"city","location":[7.7689951,49.4432174],"bbox":[7.6089951,49.2832174,7.9289951,49.6032174]}
{"name":"Koblenz","other_names":{"name:an":"Coblenza","name:ar":"کوبلنتس","name:br":"Koblenz","name:ca":"Coblença","name:cs":"Koblenec","name:de":"Koblenz","name:el":"Κόμπλεντς","name:es":"Coblenza","name:eu":"Koblentza","name:fr":"Coblence","name:it":"Coblenza","name:ja":"コブレンツ","name:la":"Confluentes","name:lb":"Kueblenz","name:pl":"Koblencja","name:pt":"Coblença","name:ru":"Кобленц","name:sr":"Кобленц","name:ur":"کوبلینز","name:zh":"科布伦茨","loc_name":"Kowelenz","name:ast":"Coblenza","name:azb":"کوبلنتس","name:lmo":"Coblenza","name:nds":"Koblenz","alt_name:en":"Coblenz","name:az-Arab":"کوبلنتس","name:kk-Arab":"كوبلەنتس"},"display_name":"Koblenz, Rheinland-Pfalz, Deutschland","address":{"city":"Koblenz","state":"Rheinland-Pfalz","ISO3166-2-lvl4":"DE-RP","country":"Deutschland","country_code":"de"},"population":110643,"osm_type":"node","osm_id":240102654,"type":"city","location":[7.5943951,50.3533278],"bbox":[7.4343951,50.1933278,7.7543951,50.5133278]}
{"name":"Wiesbaden","other_names":{"name:ar":"فيسبادن","name:de":"Wiesbaden","name:ja":"ヴィースバーデン","name:la":"Aquae Mattiacae","name:lt":"Vysbadenas","name:ru":"Висбаден","name:sr":"Висбаден","name:uk":"Вісбаден","name:zh":"威斯巴登","name:nds":"Wiesbaden","alt_name:la":"Aquae Mattiacorum","name:zh-Hans":"威斯巴登","name:zh-Hant":"威斯巴登"},"display_name":"Wiesbaden, Hessen, Deutschland","address":{"city":"Wiesbaden","state":"Hessen","ISO3166-2-lvl4":"DE-HE","country":"Deutschland","country_code":"de"},"population":273871,"osm_type":"node","osm_id":240028377,"type":"city","location":[8.2416556,50.0820384],"bbox":[8.0816556,49.9220384,8.4016556,50.2420384]}
{"name":"Mainz","other_names":{"name:ar":"ماينتس","name:ca":"Magúncia","name:cs":"Mohuč","name:de":"Mainz","name:en":"Mainz","name:es":"Maguncia","name:fr":"Mayence","name:he":"מגנצא","name:it":"Magonza","name:ja":"マインツ","name:la":"Mogontiacum","name:lt":"Maincas","name:pl":"Moguncja","name:ru":"Майнц","name:sk":"Mohuč","name:sr":"Мајнц","name:uk":"Майнц","name:zh":"美因茨","name:hsb":"Mohuč","name:pfl":"Meenz","name:zh-Hant":"美茵茨"},"display_name":"Mainz, Rheinland-Pfalz, Deutschland","address":{"city":"Mainz","state":"Rheinland-Pfalz","ISO3166-2-lvl4":"DE-RP","country":"Deutschland","country_code":"de"},"population":209779,"osm_type":"node","osm_id":240116263,"type":"city","location":[8.2762513,50.0012314],"bbox":[8.1162513,49.8412314,8.4362513,50.1612314]}
{"name":"Reutlingen","other_names":{"name:ar":"رويتلينغن","name:fr":"Reutlingen","name:la":"Reutlingen","name:ru":"Ройтлинген","name:sr":"Ројтлинген","name:uk":"Ройтлінген","name:nds":"Reutlingen","alt_name:ar":"ريوتلنجن"},"display_name":"Reutlingen, Landkreis Reutlingen, Baden-Württemberg, Deutschland","address":{"city":"Reutlingen","county":"Landkreis Reutlingen","state":"Baden-Württemberg","ISO3166-2-lvl4":"DE-BW","country":"Deutschland","country_code":"de"},"population":112099,"osm_type":"node","osm_id":31985630,"type":"city","location":[9.2114144,48.4919508],"bbox":[9.0514144,48.3319508,9.3714144,48.6519508]}
{"name":"Pforzheim","other_names":{"name:ar":"فورتسهايم","name:ja":"プフォルツハイム","name:la":"Phorca","name:ru":"Пфорцгейм","name:sr":"Пфорцхајм","name:zh":"普福尔茨海姆","alt_name:ar":"بفورتسهايم"},"display_name":"Pforzheim, Baden-Württemberg, Deutschland","address":{"city":"Pforzheim","state":"Baden-Württemberg","ISO3166-2-lvl4":"DE-BW","country":"Deutschland","country_code":"de"},"population":117754,"osm_type":"node","osm_id":240046032,"type":"city","location":[8.7029532,48.8908846],"bbox":[8.5429532,48.7308846,8.8629532,49.0508846]}
{"name":"Stuttgart","other_names":{"name:ar":"شتوتغارت","name:cs":"Štíhrad","name:de":"Stuttgart","name:el":"Στουτγκάρδη","name:en":"Stuttgart","name:eo":"Ŝtutgarto","name:fr":"Stuttgart","name:it":"Stoccarda","name:ja":"シュトゥットガルト","name:ko":"슈투트가르트","name:la":"Stutgardia","name:lt":"Štutgartas","name:lv":"Štutgarte","name:mk":"Штутгарт","name:pt":"Estugarda","name:ru":"Штутгарт","name:sr":"Штутгарт","name:th":"ชตุทท์การ์ท","name:uk":"Штутгарт","name:zh":"斯图加特","name:gsw":"Stuegert","name:pfl":"Schduggad","name:swg":"Schtugert","alt_name:cs":"Štukart;Štokart","old_name:fr":"Stutgard","name:zh-Hant":"斯圖加特"},"display_name":"Stuttgart, Baden-Württemberg, Deutschland","address":{"city":"Stuttgart","state":"Baden-Württemberg","ISO3166-2-lvl4":"DE-BW","country":"Deutschland","country_code":"de"},"population":613392,"osm_type":"node","osm_id":1674026139,"type":"city","location":[9.1800132,48.7784485],"bbox":[9.0200132,48.6184485,9.3400132,48.9384485]}
{"name":"Heilbronn","other_names":{"name:ru":"Хайльбронн"},"display_name":"Heilbronn, Baden-Württemberg, Deutschland","address":{"city":"Heilbronn","state":"Baden-Württemberg","ISO3166-2-lvl4":"DE-BW","country":"Deutschland","country_code":"de"},"population":118122,"osm_type":"node","osm_id":26769661,"type":"city","location":[9.218655,49.142291],"bbox":[9.058655,48.982291,9.378655,49.302291]}
{"name":"Ulm","other_names":{"name:ar":"أولم","name:de":"Ulm","name:en":"Ulm","name:fr":"Ulm","name:hy":"Ուլմ","name:it":"Ulmo","name:ja":"ウルム","name:ka":"ულმი","name:la":"Ulma","name:ru":"Ульм","name:sr":"Улм","name:uk":"Ульм","name:zh":"乌尔姆","name:dsb":"Ulm","name:zh-Hant":"烏爾姆"},"display_name":"Ulm, Baden-Württemberg, Deutschland","address":{"city":"Ulm","state":"Baden-Württemberg","ISO3166-2-lvl4":"DE-BW","country":"Deutschland","country_code":"de"},"population":121648,"osm_type":"node","osm_id":1699831958,"type":"city","location":[9.9934336,48.3974003],"bbox":[9.8334336,48.2374003,10.1534336,48.5574003]}
{"name":"Augsburg","other_names":{"name:ar":"أوغسبورغ","name:br":"Augsburg","name:cs":"Augšpurk","name:de":"Augsburg","name:en":"Augsburg","name:es":"Augsburgo","name:eu":"Augsburg","name:fa":"اوگسبورگ","name:fr":"Augsbourg","name:hy":"Աուգսբուրգ","name:it":"Augusta","name:ja":"アウクスブルク","name:ka":"აუგსბურგი","name:la":"Augusta Vindelicorum","name:lv":"Augsburga","name:ru":"Аугсбург","name:sr":"Аугзбург","name:th":"เอาก์สบูร์ก","name:tr":"Augsburg","name:uk":"Аугсбург","name:zh":"奥格斯堡","name:als":"Augschburg","name:bar":"Augschburg","old_name:hu":"Ágosta","name:zh-Hant":"奧格斯堡"},"display_name":"Augsburg, Bayern, Deutschland","address":{"city":"Augsburg","state":"Bayern","ISO3166-2-lvl4":"DE-BY","country":"Deutschland","country_code":"de"},"population":293415,"osm_type":"node","osm_id":1559853166,"type":"city","location":[10.8986971,48.3668041],"bbox":[10.7386971,48.2068041,11.0586971,48.5268041]}
{"name":"Ludwigshafen am Rhein","other_names":{"name:de":"Ludwigshafen am Rhein","name:la":"Ludovici Portus Rhenanus","name:ru":"Людвигсхафен-на-Рейне","name:sr":"Лудвигсхафен на Рајни","name:zh":"路德维希港","alt_name":"Ludwigshafen","name:pfl":"Ludwichshafe","name:zh-Hans":"路德维希港","name:zh-Hant":"路德維希港"},"display_name":"Ludwigshafen am Rhein, Rheinland-Pfalz, Deutschland","address":{"city":"Ludwigshafen am Rhein","state":"Rheinland-Pfalz","ISO3166-2-lvl4":"DE-RP","country":"Deutschland","country_code":"de"},"population":163340,"osm_type":"node","osm_id":240125892,"type":"city","location":[8.4381568,49.4704113],"bbox":[8.2781568,49.3104113,8.5981568,49.6304113]}
{"name":"Mannheim","other_names":{"name:ar":"مانهايم","name:da":"Mannheim","name:de":"Mannheim","name:el":"Μαννχεΐμη","name:en":"Mannheim","name:eo":"Mannheim","name:es":"Mannheim","name:fr":"Mannheim","name:it":"Mannheim","name:ja":"マンハイム","name:la":"Manhemium","name:lb":"Mannheim","name:pl":"Mannheim","name:pt":"Mannheim","name:ru":"Мангейм","name:sr":"Манхајм","name:tr":"Mannheim","name:uk":"Маннгейм","name:ur":"مانہائیم","name:zh":"曼海姆","name:pfl":"Mannem","name:zh-Hans":"曼海姆","name:zh-Hant":"曼海姆"},"display_name":"Mannheim, Baden-Württemberg, Deutschland","address":{"city":"Mannheim","state":"Baden-Württemberg","ISO3166-2-lvl4":"DE-BW","country":"Deutschland","country_code":"de"},"population":310000,"osm_type":"node","osm_id":240060919,"type":"city","location":[8.4673098,49.4892913],"bbox":[8.3073098,49.3292913,8.6273098,49.6492913]}
{"name":"Heidelberg","other_names":{"name:ar":"هايدلبرغ","name:de":"Heidelberg","name:el":"Χαϊδελβέργη","name:en":"Heidelberg","name:fr":"Heidelberg","name:ja":"ハイデルベルク","name:la":"Heidelberga","name:ru":"Хайдельберг","name:sr":"Хајделберг","name:uk":"Гайдельберг","name:zh":"海德堡","name:nds":"Heidelbarg","name:pfl":"Haidlbärsch","alt_name:ar":"هايدلبرج","name:zh-Hant":"海德堡"},"display_name":"Heidelberg, Baden-Württemberg, Deutschland","address":{"city":"Heidelberg","state":"Baden-Württemberg","ISO3166-2-lvl4":"DE-BW","country":"Deutschland","country_code":"de"},"population":152113,"osm_type":"node","osm_id":240058050,"type":"city","location":[8.694724,49.4093582],"bbox":[8.534724,49.2493582,8.854724,49.5693582]}
{"name":"Darmstadt","other_names":{"name:ar":"دارمشتات","name:de":"Darmstadt","name:ja":"ダルムシュタット","name:la":"Darmstadium","name:ru":"Дармштадт","name:sr":"Дармштат","name:zh":"达姆施塔特","name:nds":"Darmstadt","name:zh-Hans":"达姆施塔特","name:zh-Hant":"達姆城"},"display_name":"Darmstadt, Hessen, 64283, Deutschland","address":{"city":"Darmstadt","municipality":"Darmstadt","state":"Hessen","ISO3166-2-lvl4":"DE-HE","postcode":"64283","country":"Deutschland","country_code":"de"},"population":159631,"osm_type":"node","osm_id":240074718,"type":"city","location":[8.651177,49.872775],"bbox":[8.491177,49.712775,8.811177,50.032775]}
{"name":"Frankfurt am Main","other_names":{"name:an":"Frankfurt d'o Main","name:ar":"فرانكفورت","name:ca":"Frankfurt del Main","name:cs":"Frankfurt nad Mohanem","name:de":"Frankfurt am Main","name:el":"Φρανκφούρτη","name:en":"Frankfurt","name:eo":"Frankfurto","name:es":"Fráncfort del Meno","name:fr":"Francfort-sur-le-Main","name:he":"פרנקפורט","name:hr":"Frankfurt na Majni","name:hu":"Frankfurt am Main","name:it":"Francoforte sul Meno","name:ja":"フランクフルト・アム・マイン","name:ko":"프랑크푸르트","name:la":"Francofurtum ad Moenum","name:lt":"Frankfurtas prie Maino","name:lv":"Frankfurte pie Mainas","name:mk":"Франкфурт на Мајна","name:ms":"Frankfurt","name:pl":"Frankfurt nad Menem","name:ro":"Frankfurt pe Main","name:ru":"Франкфурт-на-Майне","name:sk":"Frankfurt nad Mohanom","name:sl":"Frankfurt na Majni","name:sr":"Франкфурт на Мајни","name:uk":"Франкфурт-на-Майні","name:ur":"فرینکفرٹ آم مین","alt_name":"Mainhattan;FFM;Frankfurt a. M.","name:hsb":"Frankobrod nad Mohanom","name:nds":"Frankfort an’n Main","reg_name":"Frankfurt","short_name":"Frankfurt","alt_name:en":"Frankfort","alt_name:hu":"Majna-Frankfurt","name:zh-Hans":"美因河畔法兰克福","name:zh-Hant":"美茵河畔法蘭克福","official_name":"Frankfurt am Main"},"display_name":"Frankfurt am Main, Hessen, Deutschland","address":{"city":"Frankfurt am Main","state":"Hessen","ISO3166-2-lvl4":"DE-HE","country":"Deutschland","country_code":"de"},"population":701350,"osm_type":"node","osm_id":27418664,"type":"city","location":[8.6820917,50.1106444],"bbox":[8.5220917,49.9506444,8.8420917,50.2706444]}
{"name":"Offenbach am Main","other_names":{"name:ar":"أوفنباخ على ماين","name:de":"Offenbach am Main","name:es":"Offenbach del Meno","name:fr":"Offenbach-sur-le-Main","name:ja":"オッフェンバッハ","name:la":"Offenbachium ad Moenum","name:ru":"Оффенбах","name:sr":"Офенбах на Мајни","name:zh":"美因河畔奥芬巴赫","alt_name":"Offenbach","loc_name":"Offenbach","name:zh-Hant":"美茵河畔奧芬巴赫"},"display_name":"Offenbach am Main, Hessen, Deutschland","address":{"city":"Offenbach am Main","state":"Hessen","ISO3166-2-lvl4":"DE-HE","country":"Deutschland","country_code":"de"},"population":136824,"osm_type":"node","osm_id":240072040,"type":"city","location":[8.7610698,50.1055002],"bbox":[8.6010698,49.9455002,8.9210698,50.2655002]}
{"name":"Hanau","other_names":{"name:ar":"هانو","name:de":"Hanau","name:fa":"هانو","name:azb":"هانو"},"display_name":"Hanau, Main-Kinzig-Kreis, Hessen, Deutschland","address":{"city":"Hanau","county":"Main-Kinzig-Kreis","state":"Hessen","ISO3166-2-lvl4":"DE-HE","country":"Deutschland","country_code":"de"},"population":98502,"osm_type":"node","osm_id":1675861081,"type":"city","location":[8.9169797,50.132881],"bbox":[8.7569797,49.972881,9.0769797,50.292881]}
{"name":"Würzburg","other_names":{"name:ar":"فورتسبور","name:bg":"Вюрцбург","name:de":"Würzburg","name:el":"Βύρτσμπουργκ","name:es":"Wurzburgo","name:fr":"Wurtzbourg","name:he":"וירצבורג","name:hu":"Würzburg","name:ja":"ヴュルツブルク","name:ko":"뷔르츠부르크","name:la":"Herbipolis","name:lt":"Viurcburgas","name:pt":"Wurtzburgo","name:ru":"Вюрцбург","name:sr":"Вирцбург","name:frr":"Würzbörj"},"display_name":"Würzburg, Bayern, Deutschland","address":{"city":"Würzburg","state":"Bayern","ISO3166-2-lvl4":"DE-BY","country":"Deutschland","country_code":"de"},"population":124700,"osm_type":"node","osm_id":25738881,"type":"city","location":[9.932966,49.79245],"bbox":[9.772966,49.63245,10.092966,49.95245]}
{"name":"Fürth","other_names":{"name:ar":"فورت","name:de":"Fürth","name:fa":"فورت","name:ru":"Фюрт","name:sr":"Фирт","name:uk":"Фюрт","name:ur":"فورت","reg_name":"Färdd","name:zh-Hans":"菲尔特","name:zh-Hant":"菲爾特"},"display_name":"Fürth, Bayern, Deutschland","address":{"city":"Fürth","state":"Bayern","ISO3166-2-lvl4":"DE-BY","country":"Deutschland","country_code":"de"},"population":125403,"osm_type":"node","osm_id":1602111978,"type":"city","location":[10.9893626,49.4772475],"bbox":[10.8293626,49.3172475,11.1493626,49.6372475]}
{"name":"Nürnberg","other_names":{"name:ar":"نورنبرغ","name:be":"Нюрнберг","name:ca":"Nuremberg","name:cs":"Norimberk","name:de":"Nürnberg","name:el":"Νυρεμβέργη","name:en":"Nuremberg","name:es":"Núremberg","name:eu":"Nurenberg","name:fa":"نورنبرگ","name:fr":"Nuremberg","name:gl":"Nürnberg","name:he":"נירנברג","name:hr":"Nürnberg","name:hy":"Նյուրնբերգ","name:it":"Norimberga","name:ja":"ニュルンベルク","name:ka":"ნიურნბერგი","name:la":"Norimberga","name:lt":"Niurnbergas","name:lv":"Nirnberga","name:mk":"Нирнберг","name:nl":"Neurenberg","name:pl":"Norymberga","name:pt":"Nuremberga","name:ru":"Нюрнберг","name:sk":"Norimberg","name:sr":"Нирнберг","name:th":"เนือร์นแบร์ก","name:tt":"Нүрнберг","name:uk":"Нюрнберг","name:ur":"نورنبرگ","name:zh":"纽伦堡","loc_name":"Nämberch","name:dsb":"Nürnberg","name:hsb":"Nürnberg","name:nds":"Nürnbarg","alt_name:gl":"Nuremberga","name:zh-Hans":"纽伦堡","name:zh-Hant":"紐倫堡"},"display_name":"Nürnberg, Bayern, Deutschland","address":{"city":"Nürnberg","state":"Bayern","ISO3166-2-lvl4":"DE-BY","country":"Deutschland","country_code":"de"},"population":518370,"osm_type":"node","osm_id":1569338041,"type":"city","location":[11.077298,49.453872],"bbox":[10.917298,49.293872,11.237298,49.613872]}
{"name":"Erlangen","other_names":{"name:ar":"إرلنغن","name:de":"Erlangen","name:en":"Erlangen","name:hu":"Erlangen","name:la":"Erlanga","name:lt":"Erlangenas","name:ru":"Эрланген","name:sr":"Ерланген","name:ta":"எர்லங்கன்","name:zh-Hans":"埃尔朗根","name:zh-Hant":"愛爾朗根"},"display_name":"Erlangen, Bayern, Deutschland","address":{"city":"Erlangen","state":"Bayern","ISO3166-2-lvl4":"DE-BY","country":"Deutschland","country_code":"de"},"population":117466,"osm_type":"node","osm_id":17193023,"type":"city","location":[11.0056,49.5928616],"bbox":[10.8456,49.4328616,11.1656,49.7528616]}
{"name":"Aachen","other_names":{"name:ar":"آخن","name:br":"Aac'hen","name:ca":"Aquisgrà","name:cs":"Cáchy","name:de":"Aachen","name:eo":"Aĥeno","name:es":"Aquisgrán","name:eu":"Akisgran","name:fa":"آخن","name:fr":"Aix-la-Chapelle","name:it":"Aquisgrana","name:la":"Aquisgranum","name:lb":"Oochen","name:nb":"Aachen","name:nl":"Aken","name:pl":"Akwizgran","name:pt":"Aquisgrão","name:ru":"Ахен","name:sr":"Ахен","name:ur":"آخن","name:zh":"亚琛","alt_name":"Bad Aachen","name:ksh":"Oche","name:nds":"Aken","name:zh-Hans":"亚琛","name:zh-Hant":"亞琛"},"display_name":"Aachen, Städteregion Aachen, Nordrhein-Westfalen, Deutschland","address":{"city":"Aachen","county":"Städteregion Aachen","state":"Nordrhein-Westfalen","ISO3166-2-lvl4":"DE-NW","country":"Deutschland","country_code":"de"},"population":241683,"osm_type":"node","osm_id":240041315,"type":"city","location":[6.083862,50.776351],"bbox":[5.923862,50.616351,6.243862,50.936351]}
{"name":"Köln","other_names":{"name:af":"Keulen","name:ar":"كولونيا","name:be":"Кёльн","name:bg":"Кьолн","name:bs":"Köln","name:ca":"Colònia","name:cs":"Kolín nad Rýnem","name:cy":"Cwlen","name:da":"Köln","name:de":"Köln","name:el":"Κολωνία","name:en":"Cologne","name:eo":"Kolonjo","name:es":"Colonia","name:et":"Köln","name:eu":"Kolonia","name:fa":"کلن","name:fi":"Köln","name:fr":"Cologne","name:fy":"Keulen","name:ga":"Köln","name:gl":"Colonia","name:he":"קלן","name:hi":"कलोन्","name:hr":"Köln","name:hu":"Köln","name:ia":"Colonia","name:id":"Köln","name:io":"Köln","name:is":"Köln","name:it":"Colonia","name:ja":"ケルン","name:ka":"კელნი","name:kn":"ಕಲೋನ್","name:ko":"쾰른","name:ku":"Köln","name:la":"Colonia Agrippina","name:lb":"Köln","name:li":"Kölle","name:lt":"Kelnas","name:lv":"Ķelne","name:mk":"Келн","name:mr":"क्योल्न","name:ms":"Cologne","name:nl":"Keulen","name:nn":"Köln","name:no":"Köln","name:oc":"Colonha","name:pl":"Kolonia","name:pt":"Colônia","name:qu":"Köln","name:ro":"Köln","name:ru":"Кёльн","name:sh":"Köln","name:sk":"Kolín nad Rýnom","name:sl":"Köln","name:sq":"Këllni","name:sr":"Келн","name:sv":"Köln","name:sw":"Köln","name:th":"โคโลญ","name:tl":"Cologne","name:tr":"Köln","name:tt":"Көлн","name:uk":"Кельн","name:ur":"کولون","name:vi":"Köln","name:vo":"Köln","name:yi":"קעלן","name:zh":"科隆","name:zu":"Köln","loc_name":"Kölle","name:als":"Köln","name:dsb":"Köln","name:ksh":"Kölle","name:nds":"Köln","name:pam":"Cologne","name:scn":"Culonia","name:vec":"Cołogna","name:wuu":"看勒尔","name:yue":"古龍","old_name":"Cöln;Coellen","reg_name":"Kölle","alt_name:gl":"Köln","alt_name:la":"Colonia Claudia Ara Agrippinensium","name:bat-smg":"Kiolns","name:zh-Hans":"科隆","name:zh-Hant":"科隆","name:zh_pinyin":"Kēlóng"},"display_name":"Köln, Nordrhein-Westfalen, Deutschland","address":{"city":"Köln","state":"Nordrhein-Westfalen","ISO3166-2-lvl4":"DE-NW","country":"Deutschland","country_code":"de"},"population":1069200,"osm_type":"node","osm_id":20953083,"type":"city","location":[6.959974,50.938361],"bbox":[6.799974,50.778361,7.119974,51.098361]}
{"name":"Mönchengladbach","other_names":{"name:ar":"مونشنغلدبخ","name:fr":"Mönchengladbach","name:la":"Gladbacum Monachorum","name:ru":"Мёнхенгладбах","name:sr":"Менхенгладбах","name:zh-Hans":"门兴格拉德巴赫","name:zh-Hant":"門興格拉德巴赫"},"display_name":"Mönchengladbach, Nordrhein-Westfalen, Deutschland","address":{"city":"Mönchengladbach","state":"Nordrhein-Westfalen","ISO3166-2-lvl4":"DE-NW","country":"Deutschland","country_code":"de"},"population":255430,"osm_type":"node","osm_id":240062631,"type":"city","location":[6.4353792,51.1947131],"bbox":[6.2753792,51.0347131,6.5953792,51.3547131]}
{"name":"Leverkusen","other_names":{"name:ar":"ليفركوزن","name:be":"Леверкузен","name:bg":"Леверкузен","name:de":"Leverkusen","name:el":"Λεβερκούζεν","name:en":"Leverkusen","name:es":"Leverkusen","name:fa":"لورکوزن","name:fr":"Leverkusen","name:he":"לברקוזן","name:it":"Leverkusen","name:ja":"レーヴァークーゼン","name:ko":"레버쿠젠","name:nl":"Leverkusen","name:pl":"Leverkusen","name:ru":"Леверкузен","name:sr":"Леверкузен","name:tr":"Leverkusen","name:uk":"Леверкузен","name:zh":"勒沃库森","name:zh-Hant":"勒沃庫森"},"display_name":"Leverkusen, Nordrhein-Westfalen, Deutschland","address":{"city":"Leverkusen","state":"Nordrhein-Westfalen","ISO3166-2-lvl4":"DE-NW","country":"Deutschland","country_code":"de"},"population":160819,"osm_type":"node","osm_id":1651889631,"type":"city","location":[6.9881194,51.0324743],"bbox":[6.8281194,50.8724743,7.1481194,51.1924743]}
{"name":"Neuss","other_names":{"name:ar":"نويس","name:be":"Нойс","name:bg":"Нойс","name:ja":"ノイス","name:kk":"Нойс","name:ko":"노이스","name:la":"Novaesium","name:lt":"Noisas","name:ru":"Нойс","name:sr":"Нојс","name:uk":"Нойс","name:zh":"诺伊斯","loc_name":"Nüss","name:ksh":"Nüss","name:pnb":"نیوس","old_name":"Neuß","name:zh-Hans":"诺伊斯","name:zh-Hant":"諾伊斯"},"display_name":"Neuss, Rhein-Kreis Neuss, Nordrhein-Westfalen, Deutschland","address":{"city":"Neuss","district":"Rhein-Kreis Neuss","state":"Nordrhein-Westfalen","ISO3166-2-lvl4":"DE-NW","country":"Deutschland","country_code":"de"},"population":159122,"osm_type":"node","osm_id":29774529,"type":"city","location":[6.6916476,51.1981778],"bbox":[6.5316476,51.0381778,6.8516476,51.3581778]}
{"name":"Düsseldorf","other_names":{"name:ar":"دوسلدورف","name:be":"Дзюсельдорф","name:de":"Düsseldorf","name:el":"Δυσσελδόρφη","name:en":"Dusseldorf","name:eo":"Duseldorfo","name:fr":"Düsseldorf","name:ja":"デュッセルドルフ","name:la":"Dusseldorpium","name:lt":"Diuseldorfas","name:mk":"Диселдорф","name:ru":"Дюссельдорф","name:sr":"Диселдорф","name:tt":"Дүсселдорф","name:uk":"Дюссельдорф","name:ur":"ڈسلڈورف","int_name":"Dusseldorf","loc_name":"D'Dorf","old_name:nl":"Dusseldorp","name:zh-Hans":"杜塞尔多夫","name:zh-Hant":"杜塞道夫"},"display_name":"Düsseldorf, Nordrhein-Westfalen, Deutschland","address":{"city":"Düsseldorf","state":"Nordrhein-Westfalen","ISO3166-2-lvl4":"DE-NW","country":"Deutschland","country_code":"de"},"population":618128,"osm_type":"node","osm_id":240126753,"type":"city","location":[6.7763137,51.2254018],"bbox":[6.6163137,51.0654018,6.9363137,51.3854018]}
{"name":"Kleve","other_names":{"name:be":"Клевэ","name:bg":"Клеве","name:ca":"Clèveris","name:de":"Kleve","name:es":"Cléveris","name:fa":"کلوه","name:fr":"Clèves","name:ja":"クレーフェ","name:kl":"Kleff","name:la":"Clivia","name:nl":"Kleef","name:pt":"Cleves","name:ru":"Клеве","old_name":"Cleve"},"display_name":"Kleve, Kreis Kleve, Nordrhein-Westfalen, 47533, Deutschland","address":{"city":"Kleve","county":"Kreis Kleve","state":"Nordrhein-Westfalen","ISO3166-2-lvl4":"DE-NW","postcode":"47533","country":"Deutschland","country_code":"de"},"population":22643,"osm_type":"node","osm_id":240099431,"type":"city","location":[6.1376008,51.7895571],"bbox":[5.9776008,51.6295571,6.2976008,51.9495571]}
{"name":"Krefeld","other_names":{"name:ar":"كريفلد","name:de":"Krefeld","name:fa":"کرفلد","name:ja":"クレーフェルト","name:la":"Crefeldia","name:ru":"Крефельд","name:sr":"Крефелд","name:uk":"Крефельд","name:ur":"کریفیلد","name:ksh":"Kriievel","name:zh-Hans":"克雷费尔德","name:zh-Hant":"克雷費爾德"},"display_name":"Krefeld, Nordrhein-Westfalen, Deutschland","address":{"city":"Krefeld","state":"Nordrhein-Westfalen","ISO3166-2-lvl4":"DE-NW","country":"Deutschland","country_code":"de"},"population":222058,"osm_type":"node","osm_id":240048753,"type":"city","location":[6.5623343,51.3331205],"bbox":[6.4023343,51.1731205,6.7223343,51.4931205]}
{"name":"Moers","other_names":{"name:de":"Moers","name:hu":"Moers","name:la":"Meursia","name:nl":"Meurs","name:ru":"Мёрс","name:sr":"Морс","name:uk":"Мерс"},"display_name":"Moers, Kreis Wesel, Nordrhein-Westfalen, Deutschland","address":{"city":"Moers","county":"Kreis Wesel","state":"Nordrhein-Westfalen","ISO3166-2-lvl4":"DE-NW","country":"Deutschland","country_code":"de"},"population":105102,"osm_type":"node","osm_id":25763730,"type":"city","location":[6.62843,51.451283],"bbox":[6.46843,51.291283,6.78843,51.611283]}
{"name":"Duisburg","other_names":{"name:ar":"دويسبورغ","name:de":"Duisburg","name:el":"Ντούισμπουργκ","name:es":"Duisburgo","name:fr":"Duisbourg","name:gl":"Duisburgo","name:hy":"Դույսբուրգ","name:ja":"デュースブルク","name:la":"Thuiscoburgum","name:pt":"Duisburgo","name:ru":"Дуйсбург","name:sr":"Дуизбург","name:uk":"Дуйсбург","name:ur":"ڈیسبورگ","name:zh":"杜伊斯堡","name:azb":"دویسبورق","name:nds":"Duisborg","name:az-Arab":"دویسبورق","name:kk-Arab":"دۋيسبۋرگ","name:zh-Hans":"杜伊斯堡","name:zh-Hant":"杜伊斯堡"},"display_name":"Duisburg, Nordrhein-Westfalen, Deutschland","address":{"city":"Duisburg","state":"Nordrhein-Westfalen","ISO3166-2-lvl4":"DE-NW","country":"Deutschland","country_code":"de"},"population":486855,"osm_type":"node","osm_id":240055326,"type":"city","location":[6.759562,51.434999],"bbox":[6.599562,51.274999,6.919562,51.594999]}
{"name":"Oberhausen","other_names":{"name:ar":"أوبرهوزن","name:de":"Oberhausen","name:ja":"オーバーハウゼン","name:la":"Overhusa","name:ru":"Оберхаузен","name:sr":"Оберхаузен","name:nds":"Overhus","alt_name:nds":"Owerhuusen","name:zh-Hans":"奥伯豪森","name:zh-Hant":"奥伯豪森"},"display_name":"Oberhausen, Nordrhein-Westfalen, Deutschland","address":{"city":"Oberhausen","state":"Nordrhein-Westfalen","ISO3166-2-lvl4":"DE-NW","country":"Deutschland","country_code":"de"},"population":209292,"osm_type":"node","osm_id":1613672847,"type":"city","location":[6.8514435,51.4696137],"bbox":[6.6914435,51.3096137,7.0114435,51.6296137]}
{"name":"Mülheim an der Ruhr","other_names":{"name:ar":"مولهايم على الرور","name:de":"Mülheim an der Ruhr","name:la":"Mulhemium ad Ruram","name:mk":"Милхајм на Рур","name:ru":"Мюльхайм","name:sr":"Милхајм на Руру","name:uk":"Мюльхайм ан дер Рур","name:nds":"Mölm","alt_name:mk":"Милхајм","name:zh-Hans":"米尔海姆","name:zh-Hant":"魯爾河畔米爾海姆"},"display_name":"Mülheim an der Ruhr, Nordrhein-Westfalen, Deutschland","address":{"city":"Mülheim an der Ruhr","state":"Nordrhein-Westfalen","ISO3166-2-lvl4":"DE-NW","country":"Deutschland","country_code":"de"},"population":167108,"osm_type":"node","osm_id":1575668118,"type":"city","location":[6.8829192,51.4272925],"bbox":[6.7229192,51.2672925,7.0429192,51.5872925]}
{"name":"Essen","other_names":{"name:ar":"إسن","name:bg":"Есен","name:de":"Essen","name:el":"Έσση","name:fa":"اسن","name:he":"אסן","name:hu":"Essen","name:ja":"エッセン","name:ka":"ესენი","name:kk":"Эссен","name:ko":"에센","name:la":"Assindia","name:li":"Esse","name:lt":"Esenas","name:lv":"Esene","name:mr":"एसेन","name:ru":"Эссен","name:sr":"Есен","name:th":"เอสเซิน","name:ug":"Ésén","name:uk":"Ессен","name:ur":"ایسن","name:zh":"埃森","name:ksh":"Äßße","name:nds":"Essen","name:zh-Hans":"埃森","name:zh-Hant":"埃森"},"display_name":"Essen, Nordrhein-Westfalen, Deutschland","address":{"city":"Essen","state":"Nordrhein-Westfalen","ISO3166-2-lvl4":"DE-NW","country":"Deutschland","country_code":"de"},"population":569884,"osm_type":"node","osm_id":27350363,"type":"city","location":[7.0158171,51.4582235],"bbox":[6.8558171,51.2982235,7.1758171,51.6182235]}
{"name":"Bottrop","other_names":{"name:ar":"بوتروب","name:la":"Botropium","name:ru":"Ботроп","name:sr":"Ботроп","name:nds":"Bottrop"},"display_name":"Bottrop, Nordrhein-Westfalen, Deutschland","address":{"city":"Bottrop","state":"Nordrhein-Westfalen","ISO3166-2-lvl4":"DE-NW","country":"Deutschland","country_code":"de"},"population":116055,"osm_type":"node","osm_id":240026265,"type":"city","location":[6.929204,51.521581],"bbox":[6.769204,51.361581,7.089204,51.681581]}
{"name":"Bonn","other_names":{"name:ar":"بون","name:br":"Bonn","name:de":"Bonn","name:el":"Βόννη","name:hu":"Bonn","name:ja":"ボン","name:la":"Bonna","name:oc":"Bonn","name:ru":"Бонн","name:sr":"Бон","name:uk":"Бонн","name:ur":"بونیم","name:zh":"波恩"},"display_name":"Bonn, Nordrhein-Westfalen, Deutschland","address":{"city":"Bonn","state":"Nordrhein-Westfalen","ISO3166-2-lvl4":"DE-NW","country":"Deutschland","country_code":"de"},"population":330224,"osm_type":"node","osm_id":26373169,"type":"city","location":[7.10066,50.735851],"bbox":[6.94066,50.575851,7.26066,50.895851]}
{"name":"Bergisch Gladbach","other_names":{"name:ar":"برغش غلادباخ","name:fa":"برگیش گلادباخ","name:mk":"Бершки Гладбах","name:sr":"Бергиш Гладбах","alt_name:mk":"Бергиш Гладбах","name:zh-Hans":"贝尔吉施格拉德巴赫","name:zh-Hant":"貝爾吉施格拉德巴赫"},"display_name":"Bergisch Gladbach, Rheinisch-Bergischer Kreis, Nordrhein-Westfalen, Deutschland","address":{"city":"Bergisch Gladbach","county":"Rheinisch-Bergischer Kreis","state":"Nordrhein-Westfalen","ISO3166-2-lvl4":"DE-NW","country":"Deutschland","country_code":"de"},"population":109425,"osm_type":"node","osm_id":29923357,"type":"city","location":[7.1277379,50.9929303],"bbox":[6.9677379,50.8329303,7.2877379,51.1529303]}
{"name":"Solingen","other_names":{"name:ar":"زولينغن","name:ja":"ゾーリンゲン","name:la":"Salingiacum","name:ru":"Золинген","name:sr":"Золинген"},"display_name":"Solingen, Nordrhein-Westfalen, Deutschland","address":{"city":"Solingen","state":"Nordrhein-Westfalen","ISO3166-2-lvl4":"DE-NW","country":"Deutschland","country_code":"de"},"population":164205,"osm_type":"node","osm_id":240072888,"type":"city","location":[7.0845893,51.1721629],"bbox":[6.9245893,51.0121629,7.2445893,51.3321629]}
{"name":"Remscheid","other_names":{"name:ar":"رمشايد","name:la":"Remscheidium","name:ru":"Ремшайд","name:sr":"Ремшајд"},"display_name":"Remscheid, Nordrhein-Westfalen, Deutschland","address":{"city":"Remscheid","state":"Nordrhein-Westfalen","ISO3166-2-lvl4":"DE-NW","country":"Deutschland","country_code":"de"},"population":116827,"osm_type":"node","osm_id":240063145,"type":"city","location":[7.1943544,51.1798706],"bbox":[7.0343544,51.0198706,7.3543544,51.3398706]}
{"name":"Wuppertal","other_names":{"name:ar":"فوبرتال","name:de":"Wuppertal","name:el":"Βούπερταλ","name:fa":"ووپرتال","name:ja":"ヴッパータール","name:la":"Vallis Vipperae","name:ru":"Вупперталь","name:sr":"Вупертал","name:ur":"ووپاٹال","name:zh":"伍珀塔尔","name:nds":"Wupperdaal"},"display_name":"Wuppertal, Nordrhein-Westfalen, Deutschland","address":{"city":"Wuppertal","state":"Nordrhein-Westfalen","ISO3166-2-lvl4":"DE-NW","country":"Deutschland","country_code":"de"},"population":361077,"osm_type":"node","osm_id":240090728,"type":"city","location":[7.1780374,51.264018],"bbox":[7.0180374,51.104018,7.3380374,51.424018]}
{"name":"Siegen","other_names":{"name:ar":"زيغن","name:de":"Siegen","name:fa":"زیگن","name:ru":"Зиген","name:sr":"Зиген"},"display_name":"Siegen, Kreis Siegen-Wittgenstein, Nordrhein-Westfalen, Deutschland","address":{"city":"Siegen","county":"Kreis Siegen-Wittgenstein","state":"Nordrhein-Westfalen","ISO3166-2-lvl4":"DE-NW","country":"Deutschland","country_code":"de"},"population":99403,"osm_type":"node","osm_id":29063084,"type":"city","location":[8.0227233,50.8749804],"bbox":[7.8627233,50.7149804,8.1827233,51.0349804]}
{"name":"Bochum","other_names":{"name:ar":"بوخوم","name:fr":"Bochum","name:la":"Baucum","name:ru":"Бохум","name:sr":"Бохум","name:uk":"Бохум","name:zh":"波鸿","name:nds":"Baukem","name:zh-TW":"波洪"},"display_name":"Bochum, Nordrhein-Westfalen, Deutschland","address":{"city":"Bochum","state":"Nordrhein-Westfalen","ISO3166-2-lvl4":"DE-NW","country":"Deutschland","country_code":"de"},"population":371075,"osm_type":"node","osm_id":240099833,"type":"city","location":[7.2196635,51.4818111],"bbox":[7.0596635,51.3218111,7.3796635,51.6418111]}
{"name":"Gelsenkirchen","other_names":{"name:ar":"غلزنكيرشن","name:la":"Gelsenkircha","name:nds":"Gelsenkiärken"},"display_name":"Gelsenkirchen, Nordrhein-Westfalen, Deutschland","address":{"city":"Gelsenkirchen","state":"Nordrhein-Westfalen","ISO3166-2-lvl4":"DE-NW","country":"Deutschland","country_code":"de"},"population":260368,"osm_type":"node","osm_id":240052693,"type":"city","location":[7.0960124,51.5110321],"bbox":[6.9360124,51.3510321,7.2560124,51.6710321]}
{"name":"Recklinghausen","other_names":{"name:ar":"ركلنهوزن","name:la":"Recklinghusium","name:ru":"Реклингхаузен","name:sr":"Реклингхаузен","name:nds":"Riäkelhusen"},"display_name":"Recklinghausen, Kreis Recklinghausen, Nordrhein-Westfalen, Deutschland","address":{"city":"Recklinghausen","county":"Kreis Recklinghausen","state":"Nordrhein-Westfalen","ISO3166-2-lvl4":"DE-NW","country":"Deutschland","country_code":"de"},"population":115320,"osm_type":"node","osm_id":30319497,"type":"city","location":[7.1978546,51.6143815],"bbox":[7.0378546,51.4543815,7.3578546,51.7743815]}
{"name":"Herne","other_names":{"name:ar":"هيرنه","name:en":"Herne","name:hu":"Herne","name:la":"Herna","name:ru":"Херне","name:sr":"Херне"},"display_name":"Herne, Nordrhein-Westfalen, Deutschland","address":{"city":"Herne","state":"Nordrhein-Westfalen","ISO3166-2-lvl4":"DE-NW","country":"Deutschland","country_code":"de"},"population":156449,"osm_type":"node","osm_id":21315295,"type":"city","location":[7.219985,51.5380394],"bbox":[7.059985,51.3780394,7.379985,51.6980394]}
{"name":"Hagen","other_names":{"name:ar":"هاغن","name:de":"Hagen","name:el":"Χάγκεν","name:fa":"هاگن","name:ja":"ハーゲン","name:la":"Hagenium","name:ru":"Хаген","name:sr":"Хаген","name:ur":"ہاگن","name:azb":"هاقن","name:nds":"Hagen","name:pnb":"ہاگن","alt_name:ar":"هاجن"},"display_name":"Hagen, Nordrhein-Westfalen, Deutschland","address":{"city":"Hagen","state":"Nordrhein-Westfalen","ISO3166-2-lvl4":"DE-NW","country":"Deutschland","country_code":"de"},"population":186000,"osm_type":"node","osm_id":240110547,"type":"city","location":[7.473296,51.3582945],"bbox":[7.313296,51.1982945,7.633296,51.5182945]}
{"name":"Dortmund","other_names":{"name:ar":"دورتمند","name:br":"Dortmund","name:de":"Dortmund","name:el":"Ντόρτμουντ","name:es":"Dortmund","name:hu":"Dortmund","name:ja":"ドルトムント","name:la":"Tremonia","name:mk":"Дортмунд","name:ru":"Дортмунд","name:sr":"Дортмунд","name:uk":"Дортмунд","name:ur":"ڈورٹمنڈ","name:zh":"多特蒙德","name:nds":"Düörpm","old_name:es":"Tremonia","name:zh-Hant":"多特蒙德"},"display_name":"Dortmund, Nordrhein-Westfalen, Deutschland","address":{"city":"Dortmund","state":"Nordrhein-Westfalen","ISO3166-2-lvl4":"DE-NW","country":"Deutschland","country_code":"de"},"population":600933,"osm_type":"node","osm_id":25293125,"type":"city","location":[7.4652789,51.5142273],"bbox":[7.3052789,51.3542273,7.6252789,51.6742273]}
{"name":"Münster","other_names":{"name:ar":"مونستر","name:ba":"Мюнстер","name:be":"Мюнстэр","name:bg":"Мюнстер","name:cv":"Мюнстер","name:de":"Münster","name:el":"Μύνστερ","name:es":"Münster","name:fa":"مونستر","name:fy":"Munster","name:he":"מינסטר","name:ja":"ミュンスター","name:ka":"მიუნსტერი","name:kk":"Мюнстер","name:ko":"뮌스터","name:la":"Monasterium","name:lt":"Miunsteris","name:lv":"Minstere","name:mk":"Минстер","name:mn":"Мюнстер","name:nl":"Munster","name:ru":"Мюнстер","name:sr":"Минстер","name:uk":"Мюнстер","name:ur":"منسٹر","name:zh":"明斯特","name:nds":"Mönster","name:stq":"Munster","name:tzl":"Muvaina","old_name":"Mimigernaford","old_name:es":"Muñiste"},"display_name":"Münster, Nordrhein-Westfalen, Deutschland","address":{"city":"Münster","state":"Nordrhein-Westfalen","ISO3166-2-lvl4":"DE-NW","country":"Deutschland","country_code":"de"},"population":314332,"osm_type":"node","osm_id":273510436,"type":"city","location":[7.6251879,51.9625101],"bbox":[7.4651879,51.8025101,7.7851879,52.1225101]}
{"name":"Hamm","other_names":{"name:ar":"هام","name:de":"Hamm","name:fa":"هام","name:hu":"Hamm","name:la":"Hammona","name:ru":"Хамм","name:ur":"ہم"},"display_name":"Hamm, Nordrhein-Westfalen, Deutschland","address":{"city":"Hamm","state":"Nordrhein-Westfalen","ISO3166-2-lvl4":"DE-NW","country":"Deutschland","country_code":"de"},"population":176048,"osm_type":"node","osm_id":2069498986,"type":"city","location":[7.815197,51.6804093],"bbox":[7.655197,51.5204093,7.975197,51.8404093]}
{"name":"Gütersloh","other_names":{"name:de":"Gütersloh","name:ru":"Гютерсло","name:nds":"Gütsel"},"display_name":"Gütersloh, Kreis Gütersloh, Nordrhein-Westfalen, Deutschland","address":{"city":"Gütersloh","county":"Kreis Gütersloh","state":"Nordrhein-Westfalen","ISO3166-2-lvl4":"DE-NW","country":"Deutschland","country_code":"de"},"population":103603,"osm_type":"node","osm_id":304997397,"type":"city","location":[8.3782078,51.9063997],"bbox":[8.2182078,51.7463997,8.5382078,52.0663997]}
{"name":"Osnabrück","other_names":{"name:ar":"أسنابروك","name:bg":"Оснабрюк","name:de":"Osnabrück","name:he":"אוסנבריק","name:ja":"オスナブリュック","name:la":"Osnabruga","name:nl":"Osnabrück","name:ru":"Оснабрюк","name:sr":"Оснабрик","name:uk":"Оснабрюк","name:zh":"奥斯纳布吕克","name:nds":"Ossenbrügge","old_name:nl":"Osnabrugge"},"display_name":"Osnabrück, Niedersachsen, Deutschland","address":{"city":"Osnabrück","state":"Niedersachsen","ISO3166-2-lvl4":"DE-NI","country":"Deutschland","country_code":"de"},"population":167730,"osm_type":"node","osm_id":240056905,"type":"city","location":[8.047635,52.2719595],"bbox":[7.887635,52.1119595,8.207635,52.4319595]}
{"name":"Oldenburg","other_names":{"name:ar":"أولدنبورغ","name:de":"Oldenburg","name:el":"Όλντενμπουργκ","name:es":"Oldemburgo","name:fr":"Oldenbourg","name:fy":"Aldenboarch","name:is":"Aldinborg","name:ja":"オルデンブルク","name:la":"Oldenburgum","name:pt":"Oldemburgo","name:ru":"Ольденбург","name:sr":"Олденбург","name:ur":"اولڈینبرگ","name:zh":"奥尔登堡","alt_name":"Oldenburg (Oldenburg)","loc_name":"Oldenburg","name:azb":"اولدنبورق","name:nds":"Ollnborg","name:az-Arab":"اولدنبورق","name:kk-Arab":"ولدەنبۋرگ","official_name":"Oldenburg (Oldb)","official_name:ar":"أولدنبورغ (أولدنبورغ)","official_name:de":"Oldenburg (Oldb)","official_name:es":"Oldemburgo (Oldemburgo)"},"display_name":"Oldenburg, Niedersachsen, Deutschland","address":{"city":"Oldenburg","state":"Niedersachsen","ISO3166-2-lvl4":"DE-NI","country":"Deutschland","country_code":"de"},"population":163830,"osm_type":"node","osm_id":277023297,"type":"city","location":[8.2146017,53.1389753],"bbox":[8.0546017,52.9789753,8.3746017,53.2989753]}
{"name":"Kassel","other_names":{"name:ar":"كاسل","name:bg":"Касел","name:de":"Kassel","name:el":"Κάσσελ","name:en":"Kassel","name:eo":"Kaselo","name:es":"Cassel","name:fa":"کاسل","name:fr":"Cassel","name:he":"קאסל","name:ja":"カッセル","name:kk":"Кассель","name:ko":"카셀","name:la":"Cassala","name:lt":"Kaselis","name:lv":"Kasele","name:mk":"Касел","name:ru":"Кассель","name:sq":"Kaseli","name:sr":"Касел","name:th":"คัสเซิล","name:uk":"Кассель","name:zh":"卡塞尔","name:pnb":"کیسل","old_name":"Cassel","alt_name:la":"Castellum Hassiae"},"display_name":"Kassel, Hessen, Deutschland","address":{"city":"Kassel","state":"Hessen","ISO3166-2-lvl4":"DE-HE","country":"Deutschland","country_code":"de"},"population":204021,"osm_type":"node","osm_id":1583294719,"type":"city","location":[9.4924096,51.3154546],"bbox":[9.3324096,51.1554546,9.6524096,51.4754546]}
{"name":"Paderborn","other_names":{"name:ar":"بادربورن","name:de":"Paderborn","name:en":"Paderborn","name:es":"Paderborn","name:fa":"پادربورن","name:fr":"Paderborn","name:it":"Paderborn","name:ja":"パーダーボルン","name:la":"Paderbronna","name:ru":"Падерборн","name:sr":"Падерборн","name:ur":"پادربورن"},"display_name":"Paderborn, Kreis Paderborn, Nordrhein-Westfalen, Deutschland","address":{"city":"Paderborn","county":"Kreis Paderborn","state":"Nordrhein-Westfalen","ISO3166-2-lvl4":"DE-NW","country":"Deutschland","country_code":"de"},"population":151633,"osm_type":"node","osm_id":240114473,"type":"city","location":[8.752653,51.7177044],"bbox":[8.592653,51.5577044,8.912653,51.8777044]}
{"name":"Bielefeld","other_names":{"name:ar":"بيلفلد","name:de":"Bielefeld","name:ja":"ビーレフェルト","name:la":"Bilivelda","name:ru":"Билефельд","name:sr":"Билефелд","name:uk":"Білефельд","name:nds":"Builefeld"},"display_name":"Bielefeld, Nordrhein-Westfalen, Deutschland","address":{"city":"Bielefeld","state":"Nordrhein-Westfalen","ISO3166-2-lvl4":"DE-NW","country":"Deutschland","country_code":"de"},"population":328864,"osm_type":"node","osm_id":240037709,"type":"city","location":[8.531007,52.0191005],"bbox":[8.371007,51.8591005,8.691007,52.1791005]}
{"name":"Erfurt","other_names":{"name:af":"Erfurt","name:am":"ኤርፉርት","name:ar":"إرفورت","name:be":"Эрфурт","name:bg":"Ерфурт","name:de":"Erfurt","name:el":"Ερφούρτη","name:eo":"Erfurto","name:es":"Érfurt","name:fa":"ارفورت","name:fr":"Erfurt","name:hy":"Էրֆուրտ","name:ja":"エアフルト","name:ka":"ერფურტი","name:ko":"에르푸르트","name:la":"Erfordia","name:lt":"Erfurtas","name:lv":"Erfurte","name:nl":"Erfurt","name:ps":"ارفورت","name:ru":"Эрфурт","name:sq":"Erfurti","name:sr":"Ерфурт","name:sv":"Erfurt","name:uk":"Ерфурт","name:ur":"ارفرٹ","name:zh":"埃尔福特","name:azb":"ارفورت","name:dsb":"Erfurt","name:hsb":"Jarobrod","name:az-Arab":"ارفورت"},"display_name":"Erfurt, Thüringen, Deutschland","address":{"city":"Erfurt","state":"Thüringen","ISO3166-2-lvl4":"DE-TH","country":"Deutschland","country_code":"de"},"population":213332,"osm_type":"node","osm_id":240038130,"type":"city","location":[11.0287364,50.9777974],"bbox":[10.8687364,50.8177974,11.1887364,51.1377974]}
{"name":"Göttingen","other_names":{"name:ar":"غوتينغن","name:de":"Göttingen","name:el":"Γοττίγγη","name:eo":"Gotingeno","name:es":"Gotinga","name:fa":"گوتینگن","name:fr":"Gœttingue","name:it":"Gottinga","name:ja":"ゲッティンゲン","name:la":"Gottinga","name:lt":"Gėtingenas","name:pl":"Getynga","name:ru":"Гёттинген","name:sr":"Гетинген","name:nds":"Chöttingen"},"display_name":"Göttingen, Landkreis Göttingen, Niedersachsen, Deutschland","address":{"city":"Göttingen","county":"Landkreis Göttingen","state":"Niedersachsen","ISO3166-2-lvl4":"DE-NI","country":"Deutschland","country_code":"de"},"population":131436,"osm_type":"node","osm_id":1674619101,"type":"city","location":[9.9351811,51.5328328],"bbox":[9.7751811,51.3728328,10.0951811,51.6928328]}
{"name":"Hannover","other_names":{"name:am":"Հաննովեր","name:ar":"هانوفر","name:be":"Гановер","name:bg":"Хановер","name:bn":"হানোফার","name:ce":"Хановер","name:de":"Hannover","name:el":"Αννόβερο","name:en":"Hanover","name:eo":"Hanovro","name:es":"Hanóver","name:fa":"هانوفر","name:fr":"Hanovre","name:gd":"Hànobhar","name:gl":"Hannóver","name:he":"הנובר","name:hy":"Հաննովեր","name:ja":"ハノーファー","name:ka":"ჰანოვერი","name:kk":"Ганновер","name:ko":"하노버","name:la":"Hannovera","name:lt":"Hanoveris","name:lv":"Hannovere","name:mk":"Хановер","name:mn":"Ханновер","name:mr":"हानोफर","name:ms":"Hanover","name:nl":"Hannover","name:os":"Ганновер","name:pa":"ਹੈਨੋਫ਼ਾ","name:pl":"Hanower","name:ps":"هانوفر","name:pt":"Hanôver","name:ro":"Hanovra","name:ru":"Ганновер","name:sq":"Hanoveri","name:sr":"Хановер","name:th":"ฮันโนเวอร์","name:tt":"Һанновер","name:ug":"Hanofér","name:uk":"Ганновер","name:ur":"ہانوور","name:xh":"IHanoveri","name:yi":"האנאווער","name:yo":"Hanover","name:zh":"汉诺威","name:azb":"هانوفر","name:ckb":"هانۆڤەر","name:hyw":"Հաննովեր","name:nds":"Hannober","name:szl":"Hanŏwry","reg_name":"Hannover","name:az-Arab":"هانوفر","name:kk-Arab":"گاننوۆەر","name:zh-Hant":"漢諾威"},"display_name":"Hannover, Region Hannover, Niedersachsen, Deutschland","address":{"city":"Hannover","county":"Region Hannover","state":"Niedersachsen","ISO3166-2-lvl4":"DE-NI","country":"Deutschland","country_code":"de"},"population":525875,"osm_type":"node","osm_id":1651888734,"type":"city","location":[9.7385532,52.3744779],"bbox":[9.5785532,52.2144779,9.8985532,52.5344779]}
{"name":"Bremen","other_names":{"name:ar":"بريمن","name:be":"Брэмен","name:bg":"Бремен","name:cs":"Brémy","name:de":"Bremen","name:el":"Βρέμη","name:en":"Bremen","name:fa":"برمن","name:fr":"Brême","name:fy":"Bremen","name:he":"ברמן","name:hu":"Bréma","name:it":"Brema","name:ja":"ブレーメン","name:ka":"ბრემენი","name:ko":"브레멘","name:la":"Brema","name:lt":"Brėmenas","name:lv":"Brēmene","name:mk":"Бремен","name:oc":"Brèma","name:pl":"Brema","name:ru":"Бремен","name:sc":"Brema","name:sk":"Brémy","name:sq":"Bremeni","name:sr":"Бремен","name:uk":"Бремен","name:ur":"بریمین","name:zh":"不来梅","name:hsb":"Bremy","name:nds":"Bremen","name:zh-Hans":"不来梅","name:zh-Hant":"不來梅","official_name":"Freie Hansestadt Bremen","official_name:ar":"مدينة بريمن الحرة الهانزية"},"display_name":"Bremen, Deutschland","address":{"city":"Bremen","state":"Bremen","ISO3166-2-lvl4":"DE-HB","country":"Deutschland","country_code":"de"},"population":551415,"osm_type":"node","osm_id":20982927,"type":"city","location":[8.8071646,53.0758196],"bbox":[8.6471646,52.9158196,8.9671646,53.2358196]}
{"name":"Hildesheim","other_names":{"name:ar":"هلدسهايم","name:de":"Hildesheim","name:fa":"هلدس‌هایم","name:hu":"Hildesheim","name:ja":"ヒルデスハイム","name:la":"Hildesia","name:lt":"Hildesheimas","name:ru":"Хильдесхайм","name:sr":"Хилдесхајм","name:nds":"Hilmessen"},"display_name":"Hildesheim, Landkreis Hildesheim, Niedersachsen, Deutschland","address":{"city":"Hildesheim","county":"Landkreis Hildesheim","state":"Niedersachsen","ISO3166-2-lvl4":"DE-NI","country":"Deutschland","country_code":"de"},"population":101744,"osm_type":"node","osm_id":18318938,"type":"city","location":[9.9513046,52.1521636],"bbox":[9.7913046,51.9921636,10.1113046,52.3121636]}
{"name":"Salzgitter","other_names":{"name:ar":"زالتسغيتر","name:de":"Salzgitter","name:fa":"زالتسگیتر","name:ja":"ザルツギッター","name:lt":"Zalcgiteris","name:ru":"Зальцгиттер","name:sr":"Залцгитер","name:nds":"Soltgitter","old_name":"Watenstedt-Salzgitter"},"display_name":"Salzgitter, Niedersachsen, Deutschland","address":{"city":"Salzgitter","state":"Niedersachsen","ISO3166-2-lvl4":"DE-NI","country":"Deutschland","country_code":"de"},"population":103694,"osm_type":"node","osm_id":129992313,"type":"city","location":[10.3593147,52.1503721],"bbox":[10.1993147,51.9903721,10.5193147,52.3103721]}
{"name":"Braunschweig","other_names":{"name:ar":"برونشوايك","name:de":"Braunschweig","name:en":"Brunswick","name:es":"Brunswick","name:fr":"Brunswick","name:fy":"Breunswyk","name:gd":"Brunswick","name:is":"Brúnsvík","name:la":"Brunsvicum","name:lt":"Braunšveigas","name:lv":"Braunšveiga","name:nl":"Brunswijk","name:pl":"Brunszwik","name:ru":"Брауншвейг","name:sr":"Брауншвајг","name:nds":"Brunswiek","name:tzl":"Bráunschvaic"},"display_name":"Braunschweig, Niedersachsen, Deutschland","address":{"city":"Braunschweig","state":"Niedersachsen","ISO3166-2-lvl4":"DE-NI","country":"Deutschland","country_code":"de"},"population":248023,"osm_type":"node","osm_id":30137197,"type":"city","location":[10.5236066,52.2646577],"bbox":[10.3636066,52.1046577,10.6836066,52.4246577]}
{"name":"Wolfsburg","other_names":{"name:ar":"ولفسبورغ","name:de":"Wolfsburg","name:el":"Βόλφσμπουργκ","name:es":"Wolfsburgo","name:fa":"ولفسبورگ","name:fr":"Wolfsbourg","name:hy":"Վոլֆսբուրգ","name:ja":"ヴォルフスブルク","name:la":"Lycopolis","name:lt":"Volfsburgas","name:ru":"Вольфсбург","name:sr":"Волфсбург","name:uk":"Вольфсбург","name:ur":"وولفسبرگ","name:zh":"沃尔夫斯堡","name:azb":"وولفسبورق","name:nds":"Wulfsborg","old_name":"Stadt des KdF-Wagens bei Fallersleben","name:az-Arab":"وولفسبورق"},"display_name":"Wolfsburg, Niedersachsen, Deutschland","address":{"city":"Wolfsburg","state":"Niedersachsen","ISO3166-2-lvl4":"DE-NI","country":"Deutschland","country_code":"de"},"population":122457,"osm_type":"node","osm_id":31172722,"type":"city","location":[10.7861682,52.4205588],"bbox":[10.6261682,52.2605588,10.9461682,52.5805588]}
{"name":"Bremerhaven","other_names":{"name:ar":"بريمرهافن","name:be":"Брэмергафен","name:cs":"Brémský Přístav","name:de":"Bremerhaven","name:fa":"برمرهافن","name:ja":"ブレーマーハーフェン","name:la":"Bremae Portus","name:lt":"Brėmerhafenas","name:lv":"Brēmerhāfene","name:ru":"Бремерхафен","name:sr":"Бремерхафен","name:ur":"بریمیرحاوین","name:zh":"不来梅哈芬","name:nds":"Bremerhoben","name:stq":"Bremerhoawen","old_name":"Wesermünde"},"display_name":"Bremerhaven, Bremen, Deutschland","address":{"city":"Bremerhaven","state":"Bremen","ISO3166-2-lvl4":"DE-HB","country":"Deutschland","country_code":"de"},"population":117281,"osm_type":"node","osm_id":660314734,"type":"city","location":[8.5851945,53.5505392],"bbox":[8.4251945,53.3905392,8.7451945,53.7105392]}
{"name":"Flensburg","other_names":{"name:da":"Flensborg","name:de":"Flensburg","name:en":"Flensburg","name:es":"Flensburgo","name:fr":"Flensbourg","name:is":"Flensborg","name:it":"Flensburgo","name:ku":"Flensbûrx","int_name":"Flensburg","name:nds":"Flensborg"},"display_name":"Flensburg, Schleswig-Holstein, Deutschland","address":{"city":"Flensburg","state":"Schleswig-Holstein","ISO3166-2-lvl4":"DE-SH","country":"Deutschland","country_code":"de"},"population":93112,"osm_type":"node","osm_id":240033839,"type":"city","location":[9.4333264,54.7833021],"bbox":[9.2733264,54.6233021,9.5933264,54.9433021]}
{"name":"Hamburg","other_names":{"ref":"HH","name:af":"Hamburg","name:an":"Amburgo","name:ar":"هامبورغ","name:az":"Hamburq","name:be":"Гамбург","name:bg":"Хамбург","name:bn":"হামবুর্গ","name:br":"Hamburg","name:bs":"Hamburg","name:ca":"Ciutat d'Hamburg","name:cs":"Hamburk","name:cy":"Hamburg","name:da":"Hamborg","name:de":"Hamburg","name:el":"Αμβούργο","name:en":"Hamburg","name:eo":"Hamburgo","name:es":"Hamburgo","name:et":"Hamburg","name:eu":"Hanburgo","name:fa":"هامبورگ","name:fi":"Hampuri","name:fr":"Hambourg","name:fy":"Hamboarch","name:ga":"Hamburg","name:gd":"Hamburg","name:gl":"Hamburgo","name:he":"המבורג","name:hr":"Hamburg","name:hu":"Hamburg","name:hy":"Համբուրգ","name:id":"Hamburg","name:ie":"Hamburg","name:io":"Hamburg","name:is":"Hamborg","name:it":"Amburgo","name:ja":"ハンブルク","name:jv":"Hamburg","name:ka":"ჰამბურგი","name:kn":"ಹಾಂಬುರ್ಕ","name:ko":"함부르크","name:ku":"Hamburg","name:la":"Hamburgum","name:lb":"Hamburg","name:lt":"Hamburgas","name:lv":"Hamburga","name:mi":"Hamapaka","name:mk":"Хамбург","name:mr":"हांबुर्ग","name:nl":"Hamburg","name:nn":"Hamburg","name:no":"Hamburg","name:oc":"Amborg","name:pl":"Hamburg","name:pt":"Hamburgo","name:qu":"Hamburg","name:rm":"Hamburg","name:ro":"Hamburg","name:ru":"Гамбург","name:sk":"Hamburg","name:sl":"Hamburg","name:sq":"Hamburgu","name:sr":"Хамбург","name:sv":"Hamburg","name:sw":"Hamburg","name:th":"ฮัมบูร์ก","name:tr":"Hamburg","name:tt":"Һамбург","name:uk":"Гамбург","name:ur":"ہم برک","name:vi":"Hamburg","name:vo":"Hamburg","name:xh":"Hamburg","name:yi":"האמבורג","name:zh":"汉堡","name:als":"Hamburg","name:arc":"ܗܐܡܒܘܪܓ","name:bar":"Hamburg","name:dsb":"Hamburg","name:fur":"Amburc","name:hsb":"Hamburg","name:ksh":"Hamborsch","name:lij":"Ambûrgo","name:nan":"Hamburg","name:nds":"Hamborg","name:pam":"Hamburg","name:scn":"Amburgu","name:sco":"Hamburgh","name:szl":"Hamburg","name:vec":"Anburgo","name:yue":"漢堡","name:short":"HH","name:nds-nl":"Hambörg","name:zh-Hans":"汉堡","name:zh-Hant":"漢堡"},"display_name":"Hamburg, Deutschland","address":{"city":"Hamburg","ISO3166-2-lvl4":"DE-HH","country":"Deutschland","country_code":"de"},"population":1812709,"osm_type":"node","osm_id":20833623,"type":"city","location":[10.000654,53.550341],"bbox":[9.840654,53.390341,10.160654,53.710341]}
{"name":"Lübeck","other_names":{"name:ar":"لوبك","name:cs":"Lubek","name:de":"Lübeck","name:en":"Lübeck","name:eo":"Lubeko","name:es":"Lubeca","name:fa":"لوبک","name:fi":"Lyypekki","name:fr":"Lübeck","name:hu":"Lübeck","name:it":"Lubecca","name:ja":"リューベック","name:la":"Lubeca","name:lt":"Liubekas","name:lv":"Lībeka","name:pl":"Lubeka","name:ru":"Любек","name:sq":"Lybeku","name:sr":"Либек","name:uk":"Любек","name:ur":"لوبک","name:hsb":"Lubica","name:nds":"Lübeck","official_name":"Hansestadt Lübeck","official_name:af":"Hansestad Lübeck","official_name:an":"Ciudat Hanseatica de Lübeck","official_name:ar":"مدينة لوبك الهانزية","official_name:az":"Hanzey şəhəri Lübek","official_name:be":"Ганзейскі горад Любек","official_name:ca":"Ciutat Lliure i Hanseàtica de Lübeck","official_name:cv":"Любек ханза хули","official_name:da":"Hansestaden Lybæk","official_name:de":"Hansestadt Lübeck","official_name:en":"Hanseatic City of Lübeck","official_name:eo":"Hanso-urbo Lubeko","official_name:es":"Ciudad Hanseática de Lübeck","official_name:et":"Hansalinn Lübeck","official_name:eu":"Lübeckeko Hansar Hiria","official_name:fy":"Hânzestêd Lübeck","official_name:gl":"Cidade Hanseática de Lübeck","official_name:hr":"Hanzeatski grad Lübeck","official_name:id":"Kota Hanseatik Lübeck","official_name:it":"libera città anseatica di Lubecca","official_name:ja":"ハンザ都市リューベック","official_name:jv":"Kota Hanseatik Lübeck","official_name:la":"Lubeca urbs Hansica","official_name:lb":"Hansestad Lübeck","official_name:mk":"Ханзин град Либек","official_name:nl":"Hanzestad Lübeck","official_name:no":"Hansestadt Lübeck","official_name:pt":"Cidade Hanseática de Lübeck","official_name:th":"นครฮันเซอแห่งลือเบค","official_name:tr":"Hanseatik Dönemin Lübeck Şehri","official_name:vi":"Thành phố Hanse Lübeck","official_name:zh":"汉萨同盟城市吕贝克","official_name:ast":"Ciudá Hanseática de Lübeck","official_name:bar":"Hansestod Lübeck","official_name:hsb":"Hansowe město Lubica","official_name:sco":"Hanseatic Ceety o Lübeck","official_name:yue":"漢莎城市呂碧克","official_name:nds-nl":"Hanzestad Lubeek","official_name:be-tarask":"Ганзейскі горад Любэк"},"display_name":"Lübeck, Markt, Innenstadt, Lübeck, Schleswig-Holstein, 23552, Deutschland","address":{"historic":"Lübeck","road":"Markt","suburb":"Innenstadt","city_district":"Innenstadt","city":"Lübeck","state":"Schleswig-Holstein","ISO3166-2-lvl4":"DE-SH","postcode":"23552","country":"Deutschland","country_code":"de"},"population":212958,"osm_type":"node","osm_id":25327151,"type":"unesco world heritage","location":[10.684738,53.866444],"bbox":[10.684688,53.866394,10.684788,53.866494]}
{"name":"Kiel","other_names":{"name:ar":"كيل","name:be":"Кіль","name:bg":"Кил","name:de":"Kiel","name:el":"Κίελο","name:fa":"کیل","name:is":"Kíl","name:lt":"Kylis","name:lv":"Ķīle","name:mk":"Кил","name:ru":"Киль","name:uk":"Кіль","name:ur":"کیل","name:nds":"Kiel","old_name:pl":"Chylonja;Chylonia;Kilonja","name:zh-Hans":"基尔","name:zh-Hant":"基爾"},"display_name":"Kiel, Schleswig-Holstein, Deutschland","address":{"city":"Kiel","state":"Schleswig-Holstein","ISO3166-2-lvl4":"DE-SH","country":"Deutschland","country_code":"de"},"population":246306,"osm_type":"node","osm_id":24487450,"type":"city","location":[10.135555,54.3227085],"bbox":[9.975555,54.1627085,10.295555,54.4827085]}
{"name":"München","other_names":{"name:ar":"ميونخ","name:az":"Münhen","name:be":"Мюнхен","name:bg":"Мюнхен","name:br":"München","name:ca":"Munic","name:cs":"Mnichov","name:da":"München","name:de":"München","name:el":"Μόναχο","name:en":"Munich","name:eo":"Munkeno","name:es":"Múnich","name:eu":"Munich","name:fa":"مونیخ","name:fi":"München","name:fr":"Munich","name:gl":"Múnic","name:he":"מינכן","name:hi":"म्यूनिख","name:hr":"München","name:hy":"Մյունխեն","name:it":"Monaco di Baviera","name:ja":"ミュンヘン","name:ka":"მიუნხენი","name:kk":"Мюнхен","name:kn":"ಮುನಿಕ್","name:ko":"뮌헨","name:la":"Monacum","name:lt":"Miunchenas","name:lv":"Minhene","name:mk":"Минхен","name:nl":"München","name:oc":"Munic","name:pl":"Monachium","name:pt":"Munique","name:ru":"Мюнхен","name:sh":"München","name:sk":"Mníchov","name:sr":"Минхен","name:tr":"Münih","name:tt":"Мүнхен","name:uk":"Мюнхен","name:ur":"میونخ","name:uz":"Munhen","name:vi":"München","name:zh":"慕尼黑","int_name":"Munich","name:als":"Münche","name:bar":"Minga","name:dsb":"München","name:hsb":"Mnichow","alt_name:la":"Monachium;Monachum","name:zh-Hant":"慕尼黑","name:be-tarask":"Мюнхэн"},"display_name":"München, Bayern, Deutschland","address":{"city":"München","state":"Bayern","ISO3166-2-lvl4":"DE-BY","country":"Deutschland","country_code":"de"},"population":1484226,"osm_type":"node","osm_id":1700534808,"type":"city","location":[11.5753822,48.1371079],"bbox":[11.4153822,47.9771079,11.7353822,48.2971079]}
{"name":"Ingolstadt","other_names":{"name:ar":"إنغولشتات","name:de":"Ingolstadt","name:el":"Ίνγκολστατ","name:he":"אינגולשטאט","name:hu":"Ingolstadt","name:ja":"インゴルシュタット","name:la":"Ingolstadium","name:ru":"Ингольштадт","name:sr":"Инголштат","name:bar":"Inglstood"},"display_name":"Ingolstadt, Bayern, Deutschland","address":{"city":"Ingolstadt","state":"Bayern","ISO3166-2-lvl4":"DE-BY","country":"Deutschland","country_code":"de"},"population":127886,"osm_type":"node","osm_id":2110382406,"type":"city","location":[11.4250395,48.7630165],"bbox":[11.2650395,48.6030165,11.5850395,48.9230165]}
{"name":"Regensburg","other_names":{"name:ar":"ريغنسبورغ","name:ca":"Ratisbona","name:cs":"Řezno","name:de":"Regensburg","name:el":"Ρατισβόνη","name:en":"Regensburg","name:es":"Ratisbona","name:fr":"Ratisbonne","name:it":"Ratisbona","name:la":"Castra Regina","name:lt":"Rėgensburgas","name:pl":"Ratyzbona","name:pt":"Ratisbona","name:ru":"Регенсбург","name:sk":"Rezno","name:sr":"Регензбург","name:uk":"Регенсбург","name:zh":"雷根斯堡","name:bar":"Rengschburg","name:hsb":"Rězno","short_name":"Rgbg","alt_name:en":"Ratisbon","alt_name:la":"Ratisbona","name:zh-Hant":"雷根斯堡"},"display_name":"Regensburg, Bayern, Deutschland","address":{"city":"Regensburg","state":"Bayern","ISO3166-2-lvl4":"DE-BY","country":"Deutschland","country_code":"de"},"population":145000,"osm_type":"node","osm_id":240120926,"type":"city","location":[12.0974869,49.0195333],"bbox":[11.9374869,48.8595333,12.2574869,49.1795333]}
{"name":"Jena","other_names":{"name:ar":"يينا","name:de":"Jena","name:el":"Ιένα","name:en":"Jena","name:fa":"یینا","name:fr":"Iéna","name:ja":"イェーナ","name:lt":"Jėna","name:ru":"Йена","name:sr":"Јена","name:ur":"یئنا","name:zh":"耶拿","name:azb":"یینا","name:kmr":"ژەنا","name:az-Arab":"یینا","name:ku-Arab":"ژەنا"},"display_name":"Jena, Thüringen, Deutschland","address":{"city":"Jena","state":"Thüringen","ISO3166-2-lvl4":"DE-TH","country":"Deutschland","country_code":"de"},"population":111343,"osm_type":"node","osm_id":240090160,"type":"city","location":[11.5879359,50.9281717],"bbox":[11.4279359,50.7681717,11.7479359,51.0881717]}
{"name":"Halle (Saale)","other_names":{"name:af":"Halle","name:ar":"هاله","name:de":"Halle (Saale)","name:el":"Χάλλε","name:eo":"Halle ĉe Saale","name:es":"Halle","name:fa":"هاله","name:fr":"Halle-sur-Saale","name:hy":"Հալլե","name:la":"Salinae Saxonicae","name:ps":"هاله","name:ru":"Галле","name:sr":"Хале","name:azb":"هاله","name:hsb":"Hala nad Solawu","short_name":"Halle","name:az-Arab":"هاله","official_name":"Halle (Saale)","short_name:de":"Halle","short_name:fr":"Halle","short_name:hsb":"Hala","official_name:de":"Halle (Saale)","official_name:fr":"Halle-sur-Saale"},"display_name":"Halle (Saale), Sachsen-Anhalt, Deutschland","address":{"city":"Halle (Saale)","state":"Sachsen-Anhalt","ISO3166-2-lvl4":"DE-ST","country":"Deutschland","country_code":"de"},"population":231565,"osm_type":"node","osm_id":1667005776,"type":"city","location":[11.9705452,51.4825041],"bbox":[11.8105452,51.3225041,12.1305452,51.6425041]}
{"name":"Leipzig","other_names":{"name:ar":"لايبزيغ","name:cs":"Lipsko","name:de":"Leipzig","name:el":"Λειψία","name:fa":"لایپزیگ","name:fr":"Leipzig","name:hu":"Lipcse","name:it":"Lipsia","name:ja":"ライプツィヒ","name:la":"Lipsia","name:lv":"Leipciga","name:mk":"Лајпциг","name:pl":"Lipsk","name:ru":"Лейпциг","name:sr":"Лајпциг","name:uk":"Лейпциг","name:ur":"لائپزش","name:zh":"莱比锡","loc_name":"Leipzsch","name:hsb":"Lipsk","name:lat":"Lipsia","name:nds":"Lips","name:szl":"Lajpcik","reg_name":"Leipzsch,LE","name:zh-Hans":"莱比锡","name:zh-Hant":"萊比錫"},"display_name":"Leipzig, Sachsen, Deutschland","address":{"city":"Leipzig","state":"Sachsen","ISO3166-2-lvl4":"DE-SN","country":"Deutschland","country_code":"de"},"population":596517,"osm_type":"node","osm_id":21687149,"type":"city","location":[12.3747329,51.3406321],"bbox":[12.2147329,51.1806321,12.5347329,51.5006321]}
{"name":"Chemnitz","other_names":{"name:ar":"كيمنتس","name:cs":"Saská Kamenice","name:de":"Chemnitz","name:el":"Κέμνιτς","name:fa":"کمنیتس","name:he":"קמניץ","name:hu":"Chemnitz","name:ja":"ケムニッツ","name:ko":"켐니츠","name:la":"Chemnicium","name:lt":"Chemnicas","name:lv":"Kemnica","name:ru":"Хемниц","name:sk":"Kamenica","name:sr":"Хемниц","name:uk":"Хемніц","name:hsb":"Kamjenica","old_name:1953-1990":"Karl-Marx-Stadt"},"display_name":"Chemnitz, Sachsen, Deutschland","address":{"city":"Chemnitz","state":"Sachsen","ISO3166-2-lvl4":"DE-SN","country":"Deutschland","country_code":"de"},"population":243089,"osm_type":"node","osm_id":20830918,"type":"city","location":[12.9252977,50.8322608],"bbox":[12.7652977,50.6722608,13.0852977,50.9922608]}
{"name":"Dresden","other_names":{"name:ar":"دريسدن","name:az":"Drezden","name:be":"Дрэздэн","name:cs":"Drážďany","name:de":"Dresden","name:el":"Δρέσδη","name:es":"Dresde","name:fa":"درسدن","name:fr":"Dresde","name:he":"דרזדן","name:hu":"Drezda","name:it":"Dresda","name:ja":"ドレスデン","name:ko":"드레스덴","name:la":"Dresda","name:lt":"Dresdenas","name:lv":"Drēzdene","name:mk":"Дрезден","name:pl":"Drezno","name:ro":"Dresda","name:ru":"Дрезден","name:sk":"Drážďany","name:sr":"Дрезден","name:uk":"Дрезден","name:ur":"ڈریسڈن","name:zh":"德累斯顿","name:hsb":"Drježdźany","name:nds":"Dresden","name:szl":"Drezdno","name:zh-Hans":"德累斯顿","name:zh-Hant":"德累斯頓"},"display_name":"Dresden, Sachsen, Deutschland","address":{"city":"Dresden","state":"Sachsen","ISO3166-2-lvl4":"DE-SN","country":"Deutschland","country_code":"de"},"population":557098,"osm_type":"node","osm_id":20833613,"type":"city","location":[13.7381437,51.0493286],"bbox":[13.5781437,50.8893286,13.8981437,51.2093286]}
{"name":"Magdeburg","other_names":{"name:ar":"مغدبورغ","name:cs":"Magdeburk","name:de":"Magdeburg","name:eo":"Magdeburgo","name:es":"Magdeburgo","name:fa":"ماگدبورگ","name:fr":"Magdebourg","name:he":"מגדבורג","name:hy":"Մագդեբուրգ","name:it":"Magdeburgo","name:ja":"マクデブルク","name:ka":"მაგდებურგი","name:ko":"마그데부르크","name:la":"Magdeburgum","name:lt":"Magdeburgas","name:lv":"Magdeburga","name:nl":"Maagdenburg","name:pl":"Magdeburg","name:pt":"Magdeburgo","name:ru":"Магдебург","name:sq":"Magdeburgu","name:sr":"Магдебург","name:uk":"Магдебурґ","name:zh":"马格德堡","name:dsb":"Magdeburg","name:hsb":"Dźěwin","name:nds":"Meideborg","name:zh-Hant":"馬德堡"},"display_name":"Magdeburg, Sachsen-Anhalt, Deutschland","address":{"city":"Magdeburg","state":"Sachsen-Anhalt","ISO3166-2-lvl4":"DE-ST","country":"Deutschland","country_code":"de"},"population":231021,"osm_type":"node","osm_id":33997995,"type":"city","location":[11.6399609,52.1315889],"bbox":[11.4799609,51.9715889,11.7999609,52.2915889]}
{"name":"Potsdam","other_names":{"name:ar":"بوتسدام","name:be":"Патсда́м","name:bg":"Потсдам","name:ce":"Потсдам","name:cs":"Postupim","name:de":"Potsdam","name:el":"Πότσδαμ","name:eo":"Pocdamo","name:fa":"پوتسدام","name:he":"פוטסדאם","name:hi":"पॉट्सडैम","name:ja":"ポツダム","name:ka":"პოტსდამი","name:kk":"Потсдам","name:ko":"포츠담","name:la":"Potestampium","name:lt":"Potsdamas","name:lv":"Potsdama","name:mk":"Потсдам","name:os":"Потсдам","name:pl":"Poczdam","name:ru":"Потсдам","name:sk":"Postupim","name:sq":"Pocdami","name:sr":"Потсдам","name:th":"พอทสดัม","name:uk":"Потсдам","name:ur":"پاٹسڈیم","name:zh":"波茨坦","name:ckb":"پۆتسدام","name:dsb":"Podstupim","name:hsb":"Podstupim","name:pnb":"پوٹسڈیم","name:szl":"Poctam","name:zh-Hans":"波茨坦","name:zh-Hant":"波茨坦"},"display_name":"Potsdam, Brandenburg, Deutschland","address":{"city":"Potsdam","state":"Brandenburg","ISO3166-2-lvl4":"DE-BB","country":"Deutschland","country_code":"de"},"population":178089,"osm_type":"node","osm_id":1695218178,"type":"city","location":[13.0591397,52.4009309],"bbox":[12.8991397,52.2409309,13.2191397,52.5609309]}
{"name":"Berlin","other_names":{"name:ab":"Берлин","name:af":"Berlyn","name:am":"በርሊን","name:an":"Berlín","name:ar":"برلين","name:az":"Berlin","name:ba":"Берлин","name:be":"Берлін","name:bg":"Берлин","name:bi":"Berlin","name:bn":"বার্লিন","name:bo":"པེ་ལིང་","name:br":"Berlin","name:bs":"Berlin","name:ca":"Berlín","name:co":"Berlinu","name:cs":"Berlín","name:cu":"Берлинъ","name:cv":"Берлин","name:cy":"Berlin","name:da":"Berlin","name:de":"Berlin","name:el":"Βερολίνο","name:en":"Berlin","name:eo":"Berlino","name:es":"Berlín","name:et":"Berliin","name:eu":"Berlin","name:fa":"برلین","name:fi":"Berliini","name:fo":"Berlin","name:fr":"Berlin","name:fy":"Berlyn","name:ga":"Beirlín","name:gd":"Berlin","name:gl":"Berlín","name:gn":"Berlin","name:gv":"Berleen","name:he":"ברלין","name:hi":"बर्लिन","name:hr":"Berlin","name:ht":"Bèlen","name:hu":"Berlin","name:hy":"Բեռլին","name:ia":"Berlin","name:id":"Berlin","name:ie":"Berlin","name:io":"Berlin","name:is":"Berlín","name:it":"Berlino","name:iu":"ᐱᕐᓖᓐ","name:ja":"ベルリン","name:jv":"Berlin","name:ka":"ბერლინი","name:kk":"Берлин","name:kn":"ಬೆರ್ಲಿನ್","name:ko":"베를린","name:ku":"Berlîn","name:kv":"Берлин","name:kw":"Berlin","name:ky":"Берлин","name:la":"Berolinum","name:lb":"Berlin","name:lg":"Berlin","name:li":"Berlien","name:ln":"Berlin","name:lt":"Berlynas","name:lv":"Berlīne","name:mg":"Berlin","name:mi":"Pearīni","name:mk":"Берлин","name:ml":"ബെര്‍ലിന്","name:mn":"Берлин","name:mr":"बर्लिन","name:ms":"Berlin","name:mt":"Berlin","name:my":"ဘာလင်မြို့","name:na":"Berlin","name:nl":"Berlijn","name:nn":"Berlin","name:no":"Berlin","name:oc":"Berlin","name:os":"Берлин","name:pl":"Berlin","name:ps":"برلين","name:pt":"Berlim","name:qu":"Berlin","name:rm":"Berlin","name:ro":"Berlin","name:ru":"Берлин","name:sc":"Berlinu","name:se":"Berlin","name:sh":"Berlin","name:si":"බර්ලිනය","name:sk":"Berlín","name:sl":"Berlin","name:so":"Berlin","name:sq":"Berlini","name:sr":"Берлин","name:su":"Berliini","name:sv":"Berlin","name:sw":"Berlin","name:ta":"பெர்லின்","name:te":"బెర్లిన్","name:tg":"Берлин","name:th":"เบอร์ลิน","name:tl":"Berlin","name:tr":"Berlin","name:tt":"Берлин","name:ty":"Berlin","name:ug":"Bérlin","name:uk":"Берлін","name:ur":"برلن","name:uz":"Berlin","name:vi":"Béc-lin","name:wo":"Berlin","name:yi":"בערלין","name:yo":"Berlin","name:zh":"柏林","name:zu":"Berlin","name:als":"Berlin","name:ang":"Berlin","name:arc":"ܒܪܠܝܢ","name:arz":"بيرلين","name:ast":"Berlín","name:bar":"Berlin","name:bxr":"Берлин","name:ckb":"بەرلین","name:crh":"Berlin","name:csb":"Berlëno","name:diq":"Berlin","name:dsb":"Barliń","name:ext":"Berlín","name:frp":"Bèrlin","name:fur":"Berlin","name:gan":"柏林","name:haw":"Pelelina","name:hsb":"Berlin","name:ilo":"Berlin, Alemania","name:jbo":"berlin","name:kab":"Berlin","name:kbd":"Берлин","name:koi":"Берлин","name:ksh":"Bälliin","name:lez":"Берлин","name:lij":"Berlin","name:lmo":"Berlin","name:ltg":"Berlins","name:lzh":"柏林","name:mhr":"Берлин","name:mrj":"Берлин","name:myv":"Берлин ош","name:mzn":"برلین","name:nah":"Berlin","name:nan":"Berlin","name:nap":"Berlino","name:nds":"Berlin","name:nov":"Berlin","name:nrm":"Bèrlîn","name:pam":"Berlin","name:pdc":"Berlin, Deitschland","name:pfl":"Balin","name:pms":"Berlin","name:pnb":"برلن","name:pnt":"Βερολίνον","name:rmy":"Berlin","name:rue":"Берлін","name:sah":"Берлин","name:scn":"Birlinu","name:sco":"Berlin","name:stq":"Berlin","name:szl":"Berlin","name:tet":"Berlín","name:tpi":"Berlin","name:tzl":"Berlin","name:udm":"Берлин","name:vec":"Berlin","name:vls":"Berlyn","name:vro":"Berliin","name:xmf":"ბერლინი","name:yue":"柏林","name:zea":"Berlijn","name:short":"BE","name:nds-nl":"Berlien","old_name:vi":"Bá Linh","name:bat-smg":"Berlīns","name:cbk-zam":"Berlín","name:roa-rup":"Berlin","name:zh-Hans":"柏林","name:zh-Hant":"柏林","name:roa-tara":"Berline","name:be-tarask":"Бэрлін"},"display_name":"Berlin, Deutschland","address":{"city":"Berlin","ISO3166-2-lvl4":"DE-BE","country":"Deutschland","country_code":"de"},"population":3769962,"osm_type":"node","osm_id":240109189,"type":"city","location":[13.3888599,52.5170365],"bbox":[13.2288599,52.3570365,13.5488599,52.6770365]}
{"name":"Cottbus - Chóśebuz","other_names":{"name:ar":"كتبوس","name:cs":"Chotěbuz","name:de":"Cottbus","name:fa":"کتبوس","name:fr":"Cottbus","name:ja":"コトブス","name:lt":"Kotbusas","name:nl":"Cottbus","name:pl":"Chociebuż","name:ru":"Котбус","name:sk":"Chotebuz","name:sr":"Котбус","name:ur":"کتبوس","name:dsb":"Chóśebuz","name:hsb":"Choćebuz","alt_name:dsb":"Chóšobuz"},"display_name":"Cottbus - Chóśebuz, Brandenburg, Deutschland","address":{"city":"Cottbus - Chóśebuz","state":"Brandenburg","ISO3166-2-lvl4":"DE-BB","country":"Deutschland","country_code":"de"},"population":98693,"osm_type":"node","osm_id":1628927045,"type":"city","location":[14.3357307,51.7567447],"bbox":[14.1757307,51.5967447,14.4957307,51.9167447]}
{"name":"Rostock","other_names":{"name:ar":"روستوك","name:cs":"Roztoky","name:de":"Rostock","name:eo":"Rostoko","name:fa":"روستوک","name:ja":"ロストック","name:la":"Rostochium","name:lt":"Rostokas","name:lv":"Rostoka","name:ru":"Росток","name:sk":"Rostok","name:sr":"Росток","name:ur":"روستوک","name:zh":"罗斯托克","name:hsb":"Roztok","name:nds":"Rostock","name:pox":"Răstoku","alt_name:la":"Rostochiensis;Rhodopolis","alt_name:pl":"Roztok;Rostok","official_name":"Hanse- und Universitätsstadt Rostock","official_name:af":"Hansestad Rostock","official_name:ar":"مدينة روستوك الهانزية","official_name:de":"Hanse- und Universitätsstadt Rostock","official_name:lv":"Hanzas pilsēta Rostoka","official_name:ru":"Ганзе́йский го́род Ро́сток","official_name:sl":"Hanzeatsko mesto Rostock","official_name:vi":"Thành phố Hanse Rostock","official_name:zh":"汉萨城市罗斯托克","official_name:nds":"Hansestadt Rostock"},"display_name":"Rostock, Mecklenburg-Vorpommern, Deutschland","address":{"city":"Rostock","state":"Mecklenburg-Vorpommern","ISO3166-2-lvl4":"DE-MV","country":"Deutschland","country_code":"de"},"population":207830,"osm_type":"node","osm_id":1684321651,"type":"city","location":[12.1286127,54.0924445],"bbox":[11.9686127,53.9324445,12.2886127,54.2524445]}